<?xml version="1.0" encoding="UTF-8"?>
<osm version="0.6" generator="openstreetmap-cgimap 2.1.0 (2942773 spike-08.openstreetmap.org)" copyright="OpenStreetMap and contributors" attribution="http://www.openstreetmap.org/copyright" license="http://opendatacommons.org/licenses/odbl/1-0/">
 <bounds minlat="17.3598680" minlon="78.4763960" maxlat="17.3620180" maxlon="78.4791640"/>
 <node id="306605403" visible="true" version="2" changeset="30952233" timestamp="2015-05-10T02:21:40Z" user="bdiscoe" uid="402624" lat="17.3614710" lon="78.4755630"/>
 <node id="306605405" visible="true" version="2" changeset="30952233" timestamp="2015-05-10T02:21:40Z" user="bdiscoe" uid="402624" lat="17.3612801" lon="78.4765481"/>
 <node id="306605406" visible="true" version="1" changeset="527229" timestamp="2008-10-23T16:14:49Z" user="AlexPleiner" uid="61927" lat="17.3611411" lon="78.4772860"/>
 <node id="306605408" visible="true" version="3" changeset="39396692" timestamp="2016-05-18T10:06:00Z" user="Apreethi" uid="2900372" lat="17.3610015" lon="78.4780585"/>
 <node id="306605409" visible="true" version="1" changeset="527229" timestamp="2008-10-23T16:14:49Z" user="AlexPleiner" uid="61927" lat="17.3608094" lon="78.4792042"/>
 <node id="306609573" visible="true" version="2" changeset="39396692" timestamp="2016-05-18T10:06:00Z" user="Apreethi" uid="2900372" lat="17.3594811" lon="78.4773741"/>
 <node id="308560004" visible="true" version="2" changeset="82086395" timestamp="2020-03-12T03:01:35Z" user="Denver man" uid="10791458" lat="17.3628171" lon="78.4784569"/>
 <node id="2461314124" visible="true" version="3" changeset="134886199" timestamp="2023-04-14T05:46:51Z" user="T nagalaxmi" uid="18914281" lat="17.3630269" lon="78.4773261"/>
 <node id="3382388288" visible="true" version="1" changeset="29237158" timestamp="2015-03-04T06:28:54Z" user="Akash Kumar burman" uid="2662203" lat="17.3613678" lon="78.4793946"/>
 <node id="3382388289" visible="true" version="1" changeset="29237158" timestamp="2015-03-04T06:28:54Z" user="Akash Kumar burman" uid="2662203" lat="17.3614120" lon="78.4790934"/>
 <node id="3382388290" visible="true" version="1" changeset="29237158" timestamp="2015-03-04T06:28:54Z" user="Akash Kumar burman" uid="2662203" lat="17.3617806" lon="78.4794641"/>
 <node id="3382388291" visible="true" version="1" changeset="29237158" timestamp="2015-03-04T06:28:54Z" user="Akash Kumar burman" uid="2662203" lat="17.3618101" lon="78.4792016"/>
 <node id="3382388292" visible="true" version="2" changeset="105083209" timestamp="2021-05-21T10:37:04Z" user="R45_Srini Reddy" uid="11593937" lat="17.3619919" lon="78.4781223"/>
 <node id="3382388393" visible="true" version="2" changeset="105083209" timestamp="2021-05-21T10:37:04Z" user="R45_Srini Reddy" uid="11593937" lat="17.3620153" lon="78.4779640"/>
 <node id="3382388394" visible="true" version="2" changeset="105083209" timestamp="2021-05-21T10:37:04Z" user="R45_Srini Reddy" uid="11593937" lat="17.3621248" lon="78.4781660"/>
 <node id="3382388395" visible="true" version="2" changeset="105083209" timestamp="2021-05-21T10:37:04Z" user="R45_Srini Reddy" uid="11593937" lat="17.3621483" lon="78.4780077"/>
 <node id="3517023058" visible="true" version="1" changeset="31134209" timestamp="2015-05-14T10:23:08Z" user="Muralidhar Raju" uid="95446" lat="17.3600576" lon="78.4779054"/>
 <node id="3517023059" visible="true" version="1" changeset="31134209" timestamp="2015-05-14T10:23:08Z" user="Muralidhar Raju" uid="95446" lat="17.3600269" lon="78.4779993"/>
 <node id="3517023060" visible="true" version="1" changeset="31134209" timestamp="2015-05-14T10:23:08Z" user="Muralidhar Raju" uid="95446" lat="17.3599680" lon="78.4779618"/>
 <node id="3517023061" visible="true" version="1" changeset="31134209" timestamp="2015-05-14T10:23:08Z" user="Muralidhar Raju" uid="95446" lat="17.3600166" lon="78.4778759"/>
 <node id="3517025802" visible="true" version="1" changeset="31134265" timestamp="2015-05-14T10:24:37Z" user="Muralidhar Raju" uid="95446" lat="17.3599770" lon="78.4778812"/>
 <node id="3517025803" visible="true" version="1" changeset="31134265" timestamp="2015-05-14T10:24:37Z" user="Muralidhar Raju" uid="95446" lat="17.3598976" lon="78.4778369"/>
 <node id="3517025804" visible="true" version="1" changeset="31134265" timestamp="2015-05-14T10:24:37Z" user="Muralidhar Raju" uid="95446" lat="17.3598841" lon="78.4778988"/>
 <node id="3517025805" visible="true" version="1" changeset="31134265" timestamp="2015-05-14T10:24:37Z" user="Muralidhar Raju" uid="95446" lat="17.3598368" lon="78.4778741"/>
 <node id="3517025806" visible="true" version="1" changeset="31134265" timestamp="2015-05-14T10:24:37Z" user="Muralidhar Raju" uid="95446" lat="17.3598824" lon="78.4778210"/>
 <node id="3517025807" visible="true" version="1" changeset="31134265" timestamp="2015-05-14T10:24:37Z" user="Muralidhar Raju" uid="95446" lat="17.3597405" lon="78.4777555"/>
 <node id="3517025808" visible="true" version="1" changeset="31134265" timestamp="2015-05-14T10:24:37Z" user="Muralidhar Raju" uid="95446" lat="17.3597118" lon="78.4778564"/>
 <node id="3517025809" visible="true" version="1" changeset="31134265" timestamp="2015-05-14T10:24:37Z" user="Muralidhar Raju" uid="95446" lat="17.3599466" lon="78.4779696"/>
 <node id="3612550949" visible="true" version="3" changeset="39396692" timestamp="2016-05-18T10:06:01Z" user="Apreethi" uid="2900372" lat="17.3588825" lon="78.4780079"/>
 <node id="3612551202" visible="true" version="3" changeset="134886199" timestamp="2023-04-14T05:46:51Z" user="T nagalaxmi" uid="18914281" lat="17.3597382" lon="78.4766352"/>
 <node id="3612551258" visible="true" version="2" changeset="39396692" timestamp="2016-05-18T10:06:01Z" user="Apreethi" uid="2900372" lat="17.3599372" lon="78.4784172"/>
 <node id="3612551287" visible="true" version="2" changeset="39396692" timestamp="2016-05-18T10:06:01Z" user="Apreethi" uid="2900372" lat="17.3600425" lon="78.4768197"/>
 <node id="3612551398" visible="true" version="1" changeset="32158156" timestamp="2015-06-23T10:41:11Z" user="Rajkumarmishra" uid="2869631" lat="17.3600846" lon="78.4780510"/>
 <node id="3612551402" visible="true" version="3" changeset="134886199" timestamp="2023-04-14T05:46:51Z" user="T nagalaxmi" uid="18914281" lat="17.3600382" lon="78.4769553"/>
 <node id="3612551447" visible="true" version="2" changeset="39396692" timestamp="2016-05-18T10:06:01Z" user="Apreethi" uid="2900372" lat="17.3601929" lon="78.4778495"/>
 <node id="3612551485" visible="true" version="2" changeset="145794506" timestamp="2024-01-02T11:43:21Z" user="olazeeshan" uid="19619759" lat="17.3604028" lon="78.4791284"/>
 <node id="3612551610" visible="true" version="2" changeset="39396692" timestamp="2016-05-18T10:06:01Z" user="Apreethi" uid="2900372" lat="17.3604179" lon="78.4773106"/>
 <node id="3612551618" visible="true" version="3" changeset="145794506" timestamp="2024-01-02T11:43:21Z" user="olazeeshan" uid="19619759" lat="17.3605011" lon="78.4788587"/>
 <node id="3612551663" visible="true" version="3" changeset="134886199" timestamp="2023-04-14T05:46:51Z" user="T nagalaxmi" uid="18914281" lat="17.3605931" lon="78.4772233"/>
 <node id="3612551670" visible="true" version="1" changeset="32158156" timestamp="2015-06-23T10:41:18Z" user="Rajkumarmishra" uid="2869631" lat="17.3606431" lon="78.4773052"/>
 <node id="3612551931" visible="true" version="4" changeset="39397264" timestamp="2016-05-18T10:34:18Z" user="Apreethi" uid="2900372" lat="17.3608363" lon="78.4790061"/>
 <node id="3612552239" visible="true" version="3" changeset="134886199" timestamp="2023-04-14T05:46:51Z" user="T nagalaxmi" uid="18914281" lat="17.3611664" lon="78.4771733"/>
 <node id="3612552570" visible="true" version="3" changeset="134886199" timestamp="2023-04-14T05:46:51Z" user="T nagalaxmi" uid="18914281" lat="17.3617621" lon="78.4773605"/>
 <node id="3612552796" visible="true" version="3" changeset="145791462" timestamp="2024-01-02T10:12:38Z" user="olazeeshan" uid="19619759" lat="17.3618657" lon="78.4786760"/>
 <node id="3612552798" visible="true" version="2" changeset="145791462" timestamp="2024-01-02T10:12:38Z" user="olazeeshan" uid="19619759" lat="17.3618946" lon="78.4782577"/>
 <node id="3612552801" visible="true" version="3" changeset="134886199" timestamp="2023-04-14T05:46:51Z" user="T nagalaxmi" uid="18914281" lat="17.3618642" lon="78.4778006"/>
 <node id="3612552815" visible="true" version="2" changeset="39396692" timestamp="2016-05-18T10:06:01Z" user="Apreethi" uid="2900372" lat="17.3618820" lon="78.4790778"/>
 <node id="3612552825" visible="true" version="3" changeset="134886199" timestamp="2023-04-14T05:46:51Z" user="T nagalaxmi" uid="18914281" lat="17.3619324" lon="78.4774586"/>
 <node id="3612552843" visible="true" version="2" changeset="39396692" timestamp="2016-05-18T10:06:01Z" user="Apreethi" uid="2900372" lat="17.3619992" lon="78.4787107"/>
 <node id="3612552889" visible="true" version="2" changeset="134886199" timestamp="2023-04-14T05:46:51Z" user="T nagalaxmi" uid="18914281" lat="17.3622046" lon="78.4778653"/>
 <node id="3612552994" visible="true" version="3" changeset="134886199" timestamp="2023-04-14T05:46:51Z" user="T nagalaxmi" uid="18914281" lat="17.3621810" lon="78.4772707"/>
 <node id="3612553131" visible="true" version="3" changeset="134886199" timestamp="2023-04-14T05:46:51Z" user="T nagalaxmi" uid="18914281" lat="17.3626872" lon="78.4772956"/>
 <node id="3612553139" visible="true" version="3" changeset="82086395" timestamp="2020-03-12T03:01:35Z" user="Denver man" uid="10791458" lat="17.3627482" lon="78.4788620"/>
 <node id="3681327122" visible="true" version="2" changeset="39396692" timestamp="2016-05-18T10:06:02Z" user="Apreethi" uid="2900372" lat="17.3593510" lon="78.4773660"/>
 <node id="3739015237" visible="true" version="3" changeset="82086395" timestamp="2020-03-12T03:01:35Z" user="Denver man" uid="10791458" lat="17.3626762" lon="78.4792320"/>
 <node id="4032342964" visible="true" version="1" changeset="37514525" timestamp="2016-02-29T06:02:14Z" user="Akash Kumar burman" uid="2662203" lat="17.3595119" lon="78.4765427"/>
 <node id="4193307064" visible="true" version="1" changeset="39396692" timestamp="2016-05-18T10:05:52Z" user="Apreethi" uid="2900372" lat="17.3605824" lon="78.4779794"/>
 <node id="4193307065" visible="true" version="2" changeset="134886199" timestamp="2023-04-14T05:46:51Z" user="T nagalaxmi" uid="18914281" lat="17.3614535" lon="78.4772414"/>
 <node id="4203989103" visible="true" version="2" changeset="97698061" timestamp="2021-01-18T12:15:13Z" user="Naseeruddin1999" uid="11460189" lat="17.3597527" lon="78.4777455"/>
 <node id="4203989105" visible="true" version="2" changeset="97698061" timestamp="2021-01-18T12:15:13Z" user="Naseeruddin1999" uid="11460189" lat="17.3598155" lon="78.4775992"/>
 <node id="4203989106" visible="true" version="1" changeset="39526204" timestamp="2016-05-24T07:29:06Z" user="hareesh11" uid="2915929" lat="17.3599123" lon="78.4773449"/>
 <node id="4203989108" visible="true" version="1" changeset="39526204" timestamp="2016-05-24T07:29:06Z" user="hareesh11" uid="2915929" lat="17.3602292" lon="78.4777626"/>
 <node id="4203989109" visible="true" version="3" changeset="145794343" timestamp="2024-01-02T11:37:32Z" user="olazeeshan" uid="19619759" lat="17.3603777" lon="78.4784284"/>
 <node id="4203989110" visible="true" version="2" changeset="145794343" timestamp="2024-01-02T11:37:32Z" user="olazeeshan" uid="19619759" lat="17.3604914" lon="78.4779570"/>
 <node id="4204193905" visible="true" version="1" changeset="39528078" timestamp="2016-05-24T09:00:49Z" user="hareesh11" uid="2915929" lat="17.3596004" lon="78.4782865"/>
 <node id="4204401690" visible="true" version="1" changeset="39530319" timestamp="2016-05-24T10:45:08Z" user="hareesh11" uid="2915929" lat="17.3608169" lon="78.4791489"/>
 <node id="4204401691" visible="true" version="1" changeset="39530319" timestamp="2016-05-24T10:45:08Z" user="hareesh11" uid="2915929" lat="17.3612545" lon="78.4792227"/>
 <node id="4246457939" visible="true" version="1" changeset="40065485" timestamp="2016-06-16T12:27:03Z" user="sathishshetty" uid="2913195" lat="17.3607955" lon="78.4792819"/>
 <node id="8334104852" visible="true" version="2" changeset="152543878" timestamp="2024-06-11T13:32:36Z" user="mdtauhid" uid="19369851" lat="17.3591125" lon="78.4775818"/>
 <node id="8334104855" visible="true" version="1" changeset="97698061" timestamp="2021-01-18T12:15:13Z" user="Naseeruddin1999" uid="11460189" lat="17.3594445" lon="78.4777062"/>
 <node id="8334104856" visible="true" version="1" changeset="97698061" timestamp="2021-01-18T12:15:13Z" user="Naseeruddin1999" uid="11460189" lat="17.3594784" lon="78.4777182"/>
 <node id="8334104857" visible="true" version="1" changeset="97698061" timestamp="2021-01-18T12:15:13Z" user="Naseeruddin1999" uid="11460189" lat="17.3595072" lon="78.4777229"/>
 <node id="8334104858" visible="true" version="1" changeset="97698061" timestamp="2021-01-18T12:15:13Z" user="Naseeruddin1999" uid="11460189" lat="17.3595546" lon="78.4777243"/>
 <node id="8334104859" visible="true" version="1" changeset="97698061" timestamp="2021-01-18T12:15:13Z" user="Naseeruddin1999" uid="11460189" lat="17.3596621" lon="78.4777524"/>
 <node id="8334104860" visible="true" version="1" changeset="97698061" timestamp="2021-01-18T12:15:13Z" user="Naseeruddin1999" uid="11460189" lat="17.3596941" lon="78.4777611"/>
 <node id="8334104861" visible="true" version="1" changeset="97698061" timestamp="2021-01-18T12:15:13Z" user="Naseeruddin1999" uid="11460189" lat="17.3597241" lon="78.4777549"/>
 <node id="8752675325" visible="true" version="1" changeset="105083209" timestamp="2021-05-21T10:37:04Z" user="R45_Srini Reddy" uid="11593937" lat="17.3619725" lon="78.4781769">
  <tag k="addr:district" v="Hyderabad"/>
  <tag k="addr:full" v="Chowk Mohammed Khan, Panje Shah, Pathar Gatti"/>
  <tag k="addr:postcode" v="500002"/>
  <tag k="addr:state" v="Telangana"/>
  <tag k="description" v="Primary Health Centre"/>
  <tag k="healthcare" v="centre"/>
  <tag k="name" v="Primary Health Centre, Panje Shah"/>
  <tag k="source" v="Local Knowledge"/>
 </node>
 <node id="8752675326" visible="true" version="1" changeset="105083209" timestamp="2021-05-21T10:37:04Z" user="R45_Srini Reddy" uid="11593937" lat="17.3619423" lon="78.4781290"/>
 <node id="8752675327" visible="true" version="1" changeset="105083209" timestamp="2021-05-21T10:37:04Z" user="R45_Srini Reddy" uid="11593937" lat="17.3619492" lon="78.4780933"/>
 <node id="8752675328" visible="true" version="1" changeset="105083209" timestamp="2021-05-21T10:37:04Z" user="R45_Srini Reddy" uid="11593937" lat="17.3618804" lon="78.4780789"/>
 <node id="8752675329" visible="true" version="1" changeset="105083209" timestamp="2021-05-21T10:37:04Z" user="R45_Srini Reddy" uid="11593937" lat="17.3618580" lon="78.4781960"/>
 <node id="8752675330" visible="true" version="1" changeset="105083209" timestamp="2021-05-21T10:37:04Z" user="R45_Srini Reddy" uid="11593937" lat="17.3620588" lon="78.4782381"/>
 <node id="8752675331" visible="true" version="1" changeset="105083209" timestamp="2021-05-21T10:37:04Z" user="R45_Srini Reddy" uid="11593937" lat="17.3620743" lon="78.4781567"/>
 <node id="10110568417" visible="true" version="1" changeset="127702837" timestamp="2022-10-18T04:57:04Z" user="user_10603760" uid="10603760" lat="17.3611921" lon="78.4770409"/>
 <node id="10810554259" visible="true" version="1" changeset="134886199" timestamp="2023-04-14T05:46:51Z" user="T nagalaxmi" uid="18914281" lat="17.3597489" lon="78.4766418"/>
 <node id="10810554260" visible="true" version="1" changeset="134886199" timestamp="2023-04-14T05:46:51Z" user="T nagalaxmi" uid="18914281" lat="17.3600454" lon="78.4768870"/>
 <node id="10810554261" visible="true" version="1" changeset="134886199" timestamp="2023-04-14T05:46:51Z" user="T nagalaxmi" uid="18914281" lat="17.3602214" lon="78.4770447"/>
 <node id="10810554262" visible="true" version="1" changeset="134886199" timestamp="2023-04-14T05:46:51Z" user="T nagalaxmi" uid="18914281" lat="17.3604114" lon="78.4771317"/>
 <node id="10810554267" visible="true" version="1" changeset="134886199" timestamp="2023-04-14T05:46:51Z" user="T nagalaxmi" uid="18914281" lat="17.3611460" lon="78.4767305"/>
 <node id="10810554268" visible="true" version="1" changeset="134886199" timestamp="2023-04-14T05:46:51Z" user="T nagalaxmi" uid="18914281" lat="17.3611365" lon="78.4767937"/>
 <node id="10810554269" visible="true" version="1" changeset="134886199" timestamp="2023-04-14T05:46:51Z" user="T nagalaxmi" uid="18914281" lat="17.3609816" lon="78.4767681"/>
 <node id="10810554270" visible="true" version="1" changeset="134886199" timestamp="2023-04-14T05:46:51Z" user="T nagalaxmi" uid="18914281" lat="17.3609929" lon="78.4766931"/>
 <node id="10810554271" visible="true" version="1" changeset="134886199" timestamp="2023-04-14T05:46:51Z" user="T nagalaxmi" uid="18914281" lat="17.3610221" lon="78.4766979"/>
 <node id="10810554272" visible="true" version="1" changeset="134886199" timestamp="2023-04-14T05:46:51Z" user="T nagalaxmi" uid="18914281" lat="17.3610269" lon="78.4766664"/>
 <node id="10810554273" visible="true" version="1" changeset="134886199" timestamp="2023-04-14T05:46:51Z" user="T nagalaxmi" uid="18914281" lat="17.3610845" lon="78.4766759"/>
 <node id="10810554274" visible="true" version="1" changeset="134886199" timestamp="2023-04-14T05:46:51Z" user="T nagalaxmi" uid="18914281" lat="17.3610780" lon="78.4767192"/>
 <node id="10810554275" visible="true" version="1" changeset="134886199" timestamp="2023-04-14T05:46:51Z" user="T nagalaxmi" uid="18914281" lat="17.3618713" lon="78.4774150"/>
 <node id="10810554276" visible="true" version="1" changeset="134886199" timestamp="2023-04-14T05:46:51Z" user="T nagalaxmi" uid="18914281" lat="17.3621914" lon="78.4774413"/>
 <node id="10810554277" visible="true" version="1" changeset="134886199" timestamp="2023-04-14T05:46:51Z" user="T nagalaxmi" uid="18914281" lat="17.3619022" lon="78.4776304"/>
 <node id="11478444763" visible="true" version="1" changeset="145791462" timestamp="2024-01-02T10:12:38Z" user="olazeeshan" uid="19619759" lat="17.3618908" lon="78.4783230">
  <tag k="access" v="private"/>
  <tag k="barrier" v="gate"/>
 </node>
 <node id="11478469657" visible="true" version="1" changeset="145791623" timestamp="2024-01-02T10:16:56Z" user="olazeeshan" uid="19619759" lat="17.3615741" lon="78.4781862"/>
 <node id="11478469658" visible="true" version="1" changeset="145791623" timestamp="2024-01-02T10:16:56Z" user="olazeeshan" uid="19619759" lat="17.3615602" lon="78.4783408"/>
 <node id="11478469659" visible="true" version="1" changeset="145791623" timestamp="2024-01-02T10:16:56Z" user="olazeeshan" uid="19619759" lat="17.3615540" lon="78.4783569"/>
 <node id="11478469660" visible="true" version="1" changeset="145791623" timestamp="2024-01-02T10:16:56Z" user="olazeeshan" uid="19619759" lat="17.3615390" lon="78.4783674"/>
 <node id="11478469661" visible="true" version="1" changeset="145791623" timestamp="2024-01-02T10:16:56Z" user="olazeeshan" uid="19619759" lat="17.3614785" lon="78.4783680"/>
 <node id="11478639302" visible="true" version="1" changeset="145794343" timestamp="2024-01-02T11:37:32Z" user="olazeeshan" uid="19619759" lat="17.3603624" lon="78.4783130"/>
 <node id="11478639303" visible="true" version="1" changeset="145794343" timestamp="2024-01-02T11:37:32Z" user="olazeeshan" uid="19619759" lat="17.3609021" lon="78.4786289"/>
 <node id="11478639304" visible="true" version="1" changeset="145794343" timestamp="2024-01-02T11:37:32Z" user="olazeeshan" uid="19619759" lat="17.3607978" lon="78.4785890">
  <tag k="access" v="private"/>
  <tag k="barrier" v="gate"/>
 </node>
 <node id="11478639305" visible="true" version="1" changeset="145794343" timestamp="2024-01-02T11:37:32Z" user="olazeeshan" uid="19619759" lat="17.3608500" lon="78.4786090"/>
 <node id="11478649455" visible="true" version="1" changeset="145794506" timestamp="2024-01-02T11:43:21Z" user="olazeeshan" uid="19619759" lat="17.3604727" lon="78.4787975"/>
 <node id="11478649456" visible="true" version="1" changeset="145794506" timestamp="2024-01-02T11:43:21Z" user="olazeeshan" uid="19619759" lat="17.3604656" lon="78.4787816"/>
 <node id="11478649457" visible="true" version="1" changeset="145794506" timestamp="2024-01-02T11:43:21Z" user="olazeeshan" uid="19619759" lat="17.3603417" lon="78.4787269"/>
 <node id="11478649458" visible="true" version="1" changeset="145794506" timestamp="2024-01-02T11:43:21Z" user="olazeeshan" uid="19619759" lat="17.3603211" lon="78.4787302"/>
 <node id="11478649459" visible="true" version="1" changeset="145794506" timestamp="2024-01-02T11:43:21Z" user="olazeeshan" uid="19619759" lat="17.3602732" lon="78.4787988"/>
 <node id="11478649460" visible="true" version="1" changeset="145794506" timestamp="2024-01-02T11:43:21Z" user="olazeeshan" uid="19619759" lat="17.3602547" lon="78.4788219"/>
 <node id="11478649461" visible="true" version="1" changeset="145794506" timestamp="2024-01-02T11:43:21Z" user="olazeeshan" uid="19619759" lat="17.3602319" lon="78.4788426"/>
 <node id="11478649462" visible="true" version="1" changeset="145794506" timestamp="2024-01-02T11:43:21Z" user="olazeeshan" uid="19619759" lat="17.3601282" lon="78.4789774"/>
 <node id="11478649463" visible="true" version="1" changeset="145794506" timestamp="2024-01-02T11:43:21Z" user="olazeeshan" uid="19619759" lat="17.3601827" lon="78.4788494"/>
 <node id="11478649464" visible="true" version="1" changeset="145794506" timestamp="2024-01-02T11:43:21Z" user="olazeeshan" uid="19619759" lat="17.3602044" lon="78.4788513"/>
 <node id="11478649465" visible="true" version="1" changeset="145794506" timestamp="2024-01-02T11:43:21Z" user="olazeeshan" uid="19619759" lat="17.3596332" lon="78.4788117"/>
 <node id="11478649466" visible="true" version="1" changeset="145794506" timestamp="2024-01-02T11:43:21Z" user="olazeeshan" uid="19619759" lat="17.3597621" lon="78.4786648"/>
 <node id="11478649467" visible="true" version="1" changeset="145794506" timestamp="2024-01-02T11:43:21Z" user="olazeeshan" uid="19619759" lat="17.3597193" lon="78.4786640"/>
 <node id="11478649468" visible="true" version="1" changeset="145794506" timestamp="2024-01-02T11:43:21Z" user="olazeeshan" uid="19619759" lat="17.3596845" lon="78.4786846"/>
 <node id="11478652469" visible="true" version="1" changeset="145794506" timestamp="2024-01-02T11:43:21Z" user="olazeeshan" uid="19619759" lat="17.3604495" lon="78.4787667"/>
 <node id="11478652470" visible="true" version="1" changeset="145794506" timestamp="2024-01-02T11:43:21Z" user="olazeeshan" uid="19619759" lat="17.3603072" lon="78.4787420"/>
 <node id="11478652471" visible="true" version="1" changeset="145794506" timestamp="2024-01-02T11:43:21Z" user="olazeeshan" uid="19619759" lat="17.3604839" lon="78.4788285"/>
 <node id="11484295134" visible="true" version="1" changeset="145860637" timestamp="2024-01-04T01:33:10Z" user="Eshaank22" uid="20808936" lat="17.3601692" lon="78.4764986"/>
 <node id="11484295135" visible="true" version="1" changeset="145860637" timestamp="2024-01-04T01:33:10Z" user="Eshaank22" uid="20808936" lat="17.3601475" lon="78.4765664"/>
 <node id="11484295136" visible="true" version="1" changeset="145860637" timestamp="2024-01-04T01:33:10Z" user="Eshaank22" uid="20808936" lat="17.3601376" lon="78.4765624"/>
 <node id="11484295137" visible="true" version="1" changeset="145860637" timestamp="2024-01-04T01:33:10Z" user="Eshaank22" uid="20808936" lat="17.3601381" lon="78.4765466"/>
 <node id="11484295138" visible="true" version="1" changeset="145860637" timestamp="2024-01-04T01:33:10Z" user="Eshaank22" uid="20808936" lat="17.3600998" lon="78.4765332"/>
 <node id="11484295139" visible="true" version="1" changeset="145860637" timestamp="2024-01-04T01:33:10Z" user="Eshaank22" uid="20808936" lat="17.3601206" lon="78.4764779"/>
 <node id="11484295140" visible="true" version="1" changeset="145860637" timestamp="2024-01-04T01:33:10Z" user="Eshaank22" uid="20808936" lat="17.3601151" lon="78.4764811"/>
 <node id="11484295141" visible="true" version="1" changeset="145860637" timestamp="2024-01-04T01:33:10Z" user="Eshaank22" uid="20808936" lat="17.3600910" lon="78.4765438"/>
 <node id="11484295142" visible="true" version="1" changeset="145860637" timestamp="2024-01-04T01:33:10Z" user="Eshaank22" uid="20808936" lat="17.3600561" lon="78.4765282"/>
 <node id="11484295143" visible="true" version="1" changeset="145860637" timestamp="2024-01-04T01:33:10Z" user="Eshaank22" uid="20808936" lat="17.3600696" lon="78.4764601"/>
 <node id="11484295144" visible="true" version="1" changeset="145860637" timestamp="2024-01-04T01:33:10Z" user="Eshaank22" uid="20808936" lat="17.3600207" lon="78.4766253"/>
 <node id="11484295145" visible="true" version="1" changeset="145860637" timestamp="2024-01-04T01:33:10Z" user="Eshaank22" uid="20808936" lat="17.3599974" lon="78.4766774"/>
 <node id="11484295146" visible="true" version="1" changeset="145860637" timestamp="2024-01-04T01:33:10Z" user="Eshaank22" uid="20808936" lat="17.3599774" lon="78.4766866"/>
 <node id="11484295147" visible="true" version="1" changeset="145860637" timestamp="2024-01-04T01:33:10Z" user="Eshaank22" uid="20808936" lat="17.3599142" lon="78.4766590"/>
 <node id="11484295148" visible="true" version="1" changeset="145860637" timestamp="2024-01-04T01:33:10Z" user="Eshaank22" uid="20808936" lat="17.3599219" lon="78.4766356"/>
 <node id="11484295149" visible="true" version="1" changeset="145860637" timestamp="2024-01-04T01:33:10Z" user="Eshaank22" uid="20808936" lat="17.3599060" lon="78.4766257"/>
 <node id="11484295150" visible="true" version="1" changeset="145860637" timestamp="2024-01-04T01:33:10Z" user="Eshaank22" uid="20808936" lat="17.3599304" lon="78.4765810"/>
 <node id="11484356177" visible="true" version="1" changeset="145862047" timestamp="2024-01-04T03:00:28Z" user="Eshaank22" uid="20808936" lat="17.3611799" lon="78.4765898"/>
 <node id="11484356178" visible="true" version="1" changeset="145862047" timestamp="2024-01-04T03:00:28Z" user="Eshaank22" uid="20808936" lat="17.3611583" lon="78.4766961"/>
 <node id="11484356179" visible="true" version="1" changeset="145862047" timestamp="2024-01-04T03:00:28Z" user="Eshaank22" uid="20808936" lat="17.3610986" lon="78.4766831"/>
 <node id="11484356180" visible="true" version="1" changeset="145862047" timestamp="2024-01-04T03:00:28Z" user="Eshaank22" uid="20808936" lat="17.3611023" lon="78.4766619"/>
 <node id="11484356181" visible="true" version="1" changeset="145862047" timestamp="2024-01-04T03:00:28Z" user="Eshaank22" uid="20808936" lat="17.3610684" lon="78.4766576"/>
 <node id="11484356182" visible="true" version="1" changeset="145862047" timestamp="2024-01-04T03:00:28Z" user="Eshaank22" uid="20808936" lat="17.3610454" lon="78.4766610"/>
 <node id="11484356183" visible="true" version="1" changeset="145862047" timestamp="2024-01-04T03:00:28Z" user="Eshaank22" uid="20808936" lat="17.3610693" lon="78.4765590"/>
 <node id="11484356184" visible="true" version="1" changeset="145862047" timestamp="2024-01-04T03:00:28Z" user="Eshaank22" uid="20808936" lat="17.3610639" lon="78.4765635"/>
 <node id="11484356185" visible="true" version="1" changeset="145862047" timestamp="2024-01-04T03:00:28Z" user="Eshaank22" uid="20808936" lat="17.3610419" lon="78.4766645"/>
 <node id="11484356186" visible="true" version="1" changeset="145862047" timestamp="2024-01-04T03:00:28Z" user="Eshaank22" uid="20808936" lat="17.3609499" lon="78.4766460"/>
 <node id="11484356187" visible="true" version="1" changeset="145862047" timestamp="2024-01-04T03:00:28Z" user="Eshaank22" uid="20808936" lat="17.3609748" lon="78.4765394"/>
 <node id="11484356188" visible="true" version="1" changeset="145862047" timestamp="2024-01-04T03:00:28Z" user="Eshaank22" uid="20808936" lat="17.3610885" lon="78.4770410"/>
 <node id="11484356189" visible="true" version="1" changeset="145862047" timestamp="2024-01-04T03:00:28Z" user="Eshaank22" uid="20808936" lat="17.3610659" lon="78.4771400"/>
 <node id="11484356190" visible="true" version="1" changeset="145862047" timestamp="2024-01-04T03:00:28Z" user="Eshaank22" uid="20808936" lat="17.3609011" lon="78.4771004"/>
 <node id="11484356191" visible="true" version="1" changeset="145862047" timestamp="2024-01-04T03:00:28Z" user="Eshaank22" uid="20808936" lat="17.3609034" lon="78.4770830"/>
 <node id="11484356192" visible="true" version="1" changeset="145862047" timestamp="2024-01-04T03:00:28Z" user="Eshaank22" uid="20808936" lat="17.3608693" lon="78.4770719"/>
 <node id="11484356193" visible="true" version="1" changeset="145862047" timestamp="2024-01-04T03:00:28Z" user="Eshaank22" uid="20808936" lat="17.3608709" lon="78.4770323"/>
 <node id="11484356194" visible="true" version="1" changeset="145862047" timestamp="2024-01-04T03:00:28Z" user="Eshaank22" uid="20808936" lat="17.3609162" lon="78.4770458"/>
 <node id="11484356195" visible="true" version="1" changeset="145862047" timestamp="2024-01-04T03:00:28Z" user="Eshaank22" uid="20808936" lat="17.3609291" lon="78.4769769"/>
 <node id="11484356196" visible="true" version="1" changeset="145862047" timestamp="2024-01-04T03:00:28Z" user="Eshaank22" uid="20808936" lat="17.3610462" lon="78.4770077"/>
 <node id="11484356197" visible="true" version="1" changeset="145862047" timestamp="2024-01-04T03:00:28Z" user="Eshaank22" uid="20808936" lat="17.3610432" lon="78.4770299"/>
 <node id="11539558806" visible="true" version="2" changeset="152065767" timestamp="2024-05-31T07:22:19Z" user="ompatekar" uid="16275581" lat="17.3607157" lon="78.4795519"/>
 <node id="12323235526" visible="true" version="1" changeset="158887425" timestamp="2024-11-08T09:22:05Z" user="olasakeeb" uid="19294194" lat="17.3614080" lon="78.4758882"/>
 <way id="27934062" visible="true" version="14" changeset="171171619" timestamp="2025-08-29T08:47:09Z" user="tusharvalvi" uid="16531141">
  <nd ref="3612552239"/>
  <nd ref="306605406"/>
  <nd ref="306605408"/>
  <nd ref="11478639303"/>
  <nd ref="3612551931"/>
  <nd ref="4204401690"/>
  <nd ref="306605409"/>
  <nd ref="4246457939"/>
  <nd ref="11539558806"/>
  <tag k="highway" v="secondary"/>
  <tag k="name" v="Bhagya laxmi mandir road"/>
 </way>
 <way id="28094102" visible="true" version="4" changeset="171171702" timestamp="2025-08-29T08:48:31Z" user="tusharvalvi" uid="16531141">
  <nd ref="308560004"/>
  <nd ref="3612552798"/>
  <nd ref="11478469657"/>
  <nd ref="306605408"/>
  <tag k="highway" v="residential"/>
  <tag k="name" v="Panjeshah road"/>
 </way>
 <way id="28094103" visible="true" version="5" changeset="39526204" timestamp="2016-05-24T07:29:12Z" user="hareesh11" uid="2915929">
  <nd ref="3681327122"/>
  <nd ref="306609573"/>
  <nd ref="4203989106"/>
  <nd ref="3612551610"/>
  <nd ref="3612551670"/>
  <nd ref="306605406"/>
  <tag k="highway" v="tertiary"/>
 </way>
 <way id="331180234" visible="true" version="1" changeset="29237158" timestamp="2015-03-04T06:28:56Z" user="Akash Kumar burman" uid="2662203">
  <nd ref="3382388291"/>
  <nd ref="3382388290"/>
  <nd ref="3382388288"/>
  <nd ref="3382388289"/>
  <nd ref="3382388291"/>
  <tag k="tourism" v="park"/>
 </way>
 <way id="331180235" visible="true" version="1" changeset="29237158" timestamp="2015-03-04T06:28:56Z" user="Akash Kumar burman" uid="2662203">
  <nd ref="3382388395"/>
  <nd ref="3382388394"/>
  <nd ref="3382388292"/>
  <nd ref="3382388393"/>
  <nd ref="3382388395"/>
  <tag k="tourism" v="park"/>
 </way>
 <way id="344995468" visible="true" version="1" changeset="31134209" timestamp="2015-05-14T10:23:08Z" user="Muralidhar Raju" uid="95446">
  <nd ref="3517023058"/>
  <nd ref="3517023059"/>
  <nd ref="3517023060"/>
  <nd ref="3517023061"/>
  <nd ref="3517023058"/>
  <tag k="leisure" v="park"/>
 </way>
 <way id="344995662" visible="true" version="1" changeset="31134265" timestamp="2015-05-14T10:24:37Z" user="Muralidhar Raju" uid="95446">
  <nd ref="3517025802"/>
  <nd ref="3517025803"/>
  <nd ref="3517025804"/>
  <nd ref="3517025805"/>
  <nd ref="3517025806"/>
  <nd ref="3517025807"/>
  <nd ref="3517025808"/>
  <nd ref="3517025809"/>
  <nd ref="3517025802"/>
  <tag k="area" v="yes"/>
 </way>
 <way id="355688369" visible="true" version="7" changeset="163890743" timestamp="2025-03-21T06:34:19Z" user="ompatekar" uid="16275581">
  <nd ref="3612552239"/>
  <nd ref="4193307065"/>
  <nd ref="3612552570"/>
  <nd ref="10810554275"/>
  <nd ref="3612552825"/>
  <nd ref="10810554277"/>
  <nd ref="3612552801"/>
  <nd ref="3612552889"/>
  <nd ref="10810554276"/>
  <nd ref="3612552994"/>
  <nd ref="3612553131"/>
  <nd ref="2461314124"/>
  <tag k="full_id" v="w-111459"/>
  <tag k="highway" v="living_street"/>
  <tag k="osm_id" v="-111459"/>
  <tag k="osm_type" v="way"/>
 </way>
 <way id="355689146" visible="true" version="1" changeset="32158156" timestamp="2015-06-23T10:53:05Z" user="Rajkumarmishra" uid="2869631">
  <nd ref="3612553139"/>
  <nd ref="3612552843"/>
  <tag k="full_id" v="w-111500"/>
  <tag k="highway" v="residential"/>
  <tag k="osm_id" v="-111500"/>
  <tag k="osm_type" v="way"/>
 </way>
 <way id="355693362" visible="true" version="3" changeset="39396692" timestamp="2016-05-18T10:05:54Z" user="Apreethi" uid="2900372">
  <nd ref="3739015237"/>
  <nd ref="3612552815"/>
  <tag k="full_id" v="w-111509"/>
  <tag k="highway" v="residential"/>
  <tag k="osm_id" v="-111509"/>
  <tag k="osm_type" v="way"/>
 </way>
 <way id="355704587" visible="true" version="2" changeset="145791462" timestamp="2024-01-02T10:12:38Z" user="olazeeshan" uid="19619759">
  <nd ref="11478444763"/>
  <nd ref="3612552796"/>
  <tag k="access" v="private"/>
  <tag k="full_id" v="w-111505"/>
  <tag k="highway" v="residential"/>
  <tag k="osm_id" v="-111505"/>
  <tag k="osm_type" v="way"/>
 </way>
 <way id="355705630" visible="true" version="1" changeset="32158156" timestamp="2015-06-23T11:12:30Z" user="Rajkumarmishra" uid="2869631">
  <nd ref="3612551931"/>
  <nd ref="3612551618"/>
  <nd ref="3612551485"/>
  <tag k="full_id" v="w-111474"/>
  <tag k="highway" v="residential"/>
  <tag k="osm_id" v="-111474"/>
  <tag k="osm_type" v="way"/>
 </way>
 <way id="355705717" visible="true" version="3" changeset="39526204" timestamp="2016-05-24T07:29:10Z" user="hareesh11" uid="2915929">
  <nd ref="3612551447"/>
  <nd ref="4203989110"/>
  <nd ref="4193307064"/>
  <nd ref="306605408"/>
  <tag k="full_id" v="w-111455"/>
  <tag k="highway" v="residential"/>
  <tag k="osm_id" v="-111455"/>
  <tag k="osm_type" v="way"/>
 </way>
 <way id="355707658" visible="true" version="5" changeset="145794672" timestamp="2024-01-02T11:49:36Z" user="olazeeshan" uid="19619759">
  <nd ref="3612551398"/>
  <nd ref="3612551258"/>
  <nd ref="4204193905"/>
  <nd ref="3612550949"/>
  <tag k="full_id" v="w-111455"/>
  <tag k="highway" v="residential"/>
  <tag k="osm_id" v="-111455"/>
  <tag k="osm_type" v="way"/>
 </way>
 <way id="400701974" visible="true" version="3" changeset="134886199" timestamp="2023-04-14T05:46:51Z" user="T nagalaxmi" uid="18914281">
  <nd ref="3612551670"/>
  <nd ref="3612551663"/>
  <nd ref="10810554262"/>
  <nd ref="10810554261"/>
  <nd ref="3612551402"/>
  <nd ref="10810554260"/>
  <nd ref="3612551287"/>
  <nd ref="10810554259"/>
  <nd ref="3612551202"/>
  <nd ref="4032342964"/>
  <tag k="full_id" v="w-109268"/>
  <tag k="highway" v="residential"/>
  <tag k="osm_id" v="-109268"/>
  <tag k="osm_type" v="way"/>
 </way>
 <way id="420465723" visible="true" version="1" changeset="39526204" timestamp="2016-05-24T07:29:06Z" user="hareesh11" uid="2915929">
  <nd ref="4203989108"/>
  <nd ref="4203989105"/>
  <tag k="highway" v="residential"/>
 </way>
 <way id="420465734" visible="true" version="2" changeset="145794343" timestamp="2024-01-02T11:37:32Z" user="olazeeshan" uid="19619759">
  <nd ref="11478639305"/>
  <nd ref="11478639304"/>
  <nd ref="4203989109"/>
  <tag k="access" v="private"/>
  <tag k="highway" v="service"/>
 </way>
 <way id="420465741" visible="true" version="3" changeset="152543878" timestamp="2024-06-11T13:32:36Z" user="mdtauhid" uid="19369851">
  <nd ref="8334104852"/>
  <nd ref="8334104855"/>
  <nd ref="8334104856"/>
  <nd ref="8334104857"/>
  <nd ref="8334104858"/>
  <nd ref="8334104859"/>
  <nd ref="8334104860"/>
  <nd ref="8334104861"/>
  <nd ref="4203989103"/>
  <nd ref="4203989105"/>
  <nd ref="4203989106"/>
  <tag k="highway" v="residential"/>
 </way>
 <way id="420504593" visible="true" version="1" changeset="39530319" timestamp="2016-05-24T10:45:08Z" user="hareesh11" uid="2915929">
  <nd ref="4204401690"/>
  <nd ref="4204401691"/>
  <tag k="highway" v="residential"/>
 </way>
 <way id="945433913" visible="true" version="1" changeset="105083209" timestamp="2021-05-21T10:37:04Z" user="R45_Srini Reddy" uid="11593937">
  <nd ref="8752675331"/>
  <nd ref="8752675330"/>
  <nd ref="8752675329"/>
  <nd ref="8752675328"/>
  <nd ref="8752675327"/>
  <nd ref="8752675326"/>
  <nd ref="8752675331"/>
  <tag k="building" v="yes"/>
 </way>
 <way id="1104860948" visible="true" version="4" changeset="171171619" timestamp="2025-08-29T08:47:09Z" user="tusharvalvi" uid="16531141">
  <nd ref="306605403"/>
  <nd ref="12323235526"/>
  <nd ref="306605405"/>
  <nd ref="10110568417"/>
  <tag k="highway" v="secondary"/>
  <tag k="name" v="Bhagya laxmi mandir road"/>
 </way>
 <way id="1104860949" visible="true" version="3" changeset="171171619" timestamp="2025-08-29T08:47:09Z" user="tusharvalvi" uid="16531141">
  <nd ref="10110568417"/>
  <nd ref="3612552239"/>
  <tag k="highway" v="secondary"/>
  <tag k="name" v="Bhagya laxmi mandir road"/>
 </way>
 <way id="1162378693" visible="true" version="1" changeset="134886199" timestamp="2023-04-14T05:46:51Z" user="T nagalaxmi" uid="18914281">
  <nd ref="10810554267"/>
  <nd ref="10810554268"/>
  <nd ref="10810554269"/>
  <nd ref="10810554270"/>
  <nd ref="10810554271"/>
  <nd ref="10810554272"/>
  <nd ref="10810554273"/>
  <nd ref="10810554274"/>
  <nd ref="10810554267"/>
  <tag k="building" v="yes"/>
 </way>
 <way id="1191840987" visible="true" version="1" changeset="138940700" timestamp="2023-07-24T13:38:32Z" user="deept" uid="10516163">
  <nd ref="3612551610"/>
  <nd ref="4203989108"/>
  <nd ref="3612551447"/>
  <tag k="full_id" v="w-111455"/>
  <tag k="highway" v="residential"/>
  <tag k="osm_id" v="-111455"/>
  <tag k="osm_type" v="way"/>
 </way>
 <way id="1236260040" visible="true" version="1" changeset="145791462" timestamp="2024-01-02T10:12:38Z" user="olazeeshan" uid="19619759">
  <nd ref="3612552798"/>
  <nd ref="11478444763"/>
  <tag k="full_id" v="w-111505"/>
  <tag k="highway" v="residential"/>
  <tag k="osm_id" v="-111505"/>
  <tag k="osm_type" v="way"/>
 </way>
 <way id="1236260974" visible="true" version="1" changeset="145791623" timestamp="2024-01-02T10:16:56Z" user="olazeeshan" uid="19619759">
  <nd ref="11478469657"/>
  <nd ref="11478469658"/>
  <nd ref="11478469659"/>
  <nd ref="11478469660"/>
  <nd ref="11478469661"/>
  <tag k="highway" v="residential"/>
 </way>
 <way id="1236274267" visible="true" version="1" changeset="145794343" timestamp="2024-01-02T11:37:32Z" user="olazeeshan" uid="19619759">
  <nd ref="11478639302"/>
  <nd ref="4203989110"/>
  <tag k="highway" v="residential"/>
 </way>
 <way id="1236274268" visible="true" version="1" changeset="145794343" timestamp="2024-01-02T11:37:32Z" user="olazeeshan" uid="19619759">
  <nd ref="11478639303"/>
  <nd ref="11478639305"/>
  <tag k="highway" v="service"/>
 </way>
 <way id="1236274783" visible="true" version="1" changeset="145794506" timestamp="2024-01-02T11:43:21Z" user="olazeeshan" uid="19619759">
  <nd ref="3612551618"/>
  <nd ref="11478652471"/>
  <nd ref="11478649455"/>
  <nd ref="11478649456"/>
  <nd ref="11478652469"/>
  <nd ref="11478649457"/>
  <nd ref="11478649458"/>
  <nd ref="11478652470"/>
  <nd ref="11478649459"/>
  <nd ref="11478649460"/>
  <nd ref="11478649461"/>
  <nd ref="11478649464"/>
  <nd ref="11478649463"/>
  <nd ref="11478649462"/>
  <tag k="highway" v="residential"/>
 </way>
 <way id="1236274784" visible="true" version="1" changeset="145794506" timestamp="2024-01-02T11:43:21Z" user="olazeeshan" uid="19619759">
  <nd ref="11478649463"/>
  <nd ref="11478649466"/>
  <nd ref="11478649467"/>
  <nd ref="11478649468"/>
  <nd ref="11478649465"/>
  <tag k="highway" v="residential"/>
 </way>
 <way id="1236743169" visible="true" version="1" changeset="145860637" timestamp="2024-01-04T01:33:10Z" user="Eshaank22" uid="20808936">
  <nd ref="11484295134"/>
  <nd ref="11484295135"/>
  <nd ref="11484295136"/>
  <nd ref="11484295137"/>
  <nd ref="11484295138"/>
  <nd ref="11484295139"/>
  <nd ref="11484295134"/>
  <tag k="building" v="yes"/>
 </way>
 <way id="1236743170" visible="true" version="1" changeset="145860637" timestamp="2024-01-04T01:33:10Z" user="Eshaank22" uid="20808936">
  <nd ref="11484295140"/>
  <nd ref="11484295141"/>
  <nd ref="11484295142"/>
  <nd ref="11484295143"/>
  <nd ref="11484295140"/>
  <tag k="building" v="yes"/>
 </way>
 <way id="1236743171" visible="true" version="1" changeset="145860637" timestamp="2024-01-04T01:33:10Z" user="Eshaank22" uid="20808936">
  <nd ref="11484295144"/>
  <nd ref="11484295145"/>
  <nd ref="11484295146"/>
  <nd ref="11484295147"/>
  <nd ref="11484295148"/>
  <nd ref="11484295149"/>
  <nd ref="11484295150"/>
  <nd ref="11484295144"/>
  <tag k="building" v="yes"/>
 </way>
 <way id="1236750515" visible="true" version="1" changeset="145862047" timestamp="2024-01-04T03:00:28Z" user="Eshaank22" uid="20808936">
  <nd ref="11484356177"/>
  <nd ref="11484356178"/>
  <nd ref="11484356179"/>
  <nd ref="11484356180"/>
  <nd ref="11484356181"/>
  <nd ref="11484356182"/>
  <nd ref="11484356183"/>
  <nd ref="11484356177"/>
  <tag k="building" v="yes"/>
 </way>
 <way id="1236750516" visible="true" version="1" changeset="145862047" timestamp="2024-01-04T03:00:28Z" user="Eshaank22" uid="20808936">
  <nd ref="11484356184"/>
  <nd ref="11484356185"/>
  <nd ref="11484356186"/>
  <nd ref="11484356187"/>
  <nd ref="11484356184"/>
  <tag k="building" v="yes"/>
 </way>
 <way id="1236750517" visible="true" version="1" changeset="145862047" timestamp="2024-01-04T03:00:28Z" user="Eshaank22" uid="20808936">
  <nd ref="11484356188"/>
  <nd ref="11484356189"/>
  <nd ref="11484356190"/>
  <nd ref="11484356191"/>
  <nd ref="11484356192"/>
  <nd ref="11484356193"/>
  <nd ref="11484356194"/>
  <nd ref="11484356195"/>
  <nd ref="11484356196"/>
  <nd ref="11484356197"/>
  <nd ref="11484356188"/>
  <tag k="building" v="yes"/>
 </way>
</osm>
