{"type": "FeatureCollection", "features": [{"type": "Feature", "geometry": {"type": "Polygon", "coordinates": [[[78.3822084, 17.4358968], [78.382779, 17.4365914], [78.383324, 17.4360497], [78.3844875, 17.4353856], [78.3850178, 17.4367887], [78.3859332, 17.4362608], [78.3866505, 17.4359053], [78.3857408, 17.4332911], [78.3854281, 17.4335401], [78.3852098, 17.4336986], [78.3839265, 17.4346285], [78.3822084, 17.4358968]]]}, "properties": {"osm_id": 29416621, "name": "The V Ascendas IT Park", "landuse": "commercial"}}, {"type": "Feature", "geometry": {"type": "Polygon", "coordinates": [[[78.3745917, 17.4478392], [78.3775087, 17.4469892], [78.3771097, 17.4459705], [78.3749013, 17.4466258], [78.374688, 17.4466891], [78.3745917, 17.4478392]]]}, "properties": {"osm_id": 31522039, "name": "Cyber Gateway", "landuse": "commercial"}}, {"type": "Feature", "geometry": {"type": "Polygon", "coordinates": [[[78.3784102, 17.4420384], [78.3787427, 17.4436158], [78.3788207, 17.4443411], [78.3788148, 17.4450339], [78.3774591, 17.4449968], [78.3773941, 17.444052], [78.3774228, 17.4419967], [78.3784102, 17.4420384]]]}, "properties": {"osm_id": 31658080, "name": "Deccan Park, Tata Consultancy Services", "landuse": "commercial"}}, {"type": "Feature", "geometry": {"type": "Polygon", "coordinates": [[[78.3796629, 17.4502651], [78.3797277, 17.4503437], [78.3809084, 17.451103], [78.3810748, 17.4510962], [78.3812525, 17.4510623], [78.3813669, 17.4510088], [78.3819687, 17.4502092], [78.3809655, 17.4496489], [78.3796629, 17.4502651]]]}, "properties": {"osm_id": 31660146, "name": null, "landuse": "commercial"}}, {"type": "Feature", "geometry": {"type": "Polygon", "coordinates": [[[78.3809763, 17.4496387], [78.3817116, 17.4500446], [78.3819821, 17.4501939], [78.3829691, 17.4489759], [78.3827143, 17.448761], [78.3818507, 17.449242], [78.3809763, 17.4496387]]]}, "properties": {"osm_id": 31660334, "name": "Broadridge", "landuse": "commercial"}}, {"type": "Feature", "geometry": {"type": "Polygon", "coordinates": [[[78.381745, 17.4484649], [78.3837185, 17.4480176], [78.3831771, 17.4464117], [78.3813184, 17.4468638], [78.381745, 17.4484649]]]}, "properties": {"osm_id": 31770707, "name": "My Home Navadweepa", "landuse": "residential"}}, {"type": "Feature", "geometry": {"type": "Polygon", "coordinates": [[[78.3890102, 17.4371389], [78.3889391, 17.43644], [78.3889499, 17.4363856], [78.388978, 17.4363338], [78.3891049, 17.4361966], [78.389119, 17.4361894], [78.3891436, 17.4361862], [78.3905558, 17.435973], [78.3906202, 17.4373983], [78.3906189, 17.4378206], [78.3900905, 17.4374713], [78.3898872, 17.4374784], [78.3896526, 17.437312], [78.3892402, 17.4373255], [78.3892204, 17.4371265], [78.3890102, 17.4371389]]]}, "properties": {"osm_id": 68876741, "name": "Nectar Gardens", "landuse": "residential"}}, {"type": "Feature", "geometry": {"type": "Polygon", "coordinates": [[[78.3901315, 17.4385356], [78.3901034, 17.438274], [78.3906301, 17.4381797], [78.3907451, 17.4385325], [78.3902392, 17.4386341], [78.3901805, 17.4386072], [78.3901603, 17.4385848], [78.3901315, 17.4385356]]]}, "properties": {"osm_id": 68907597, "name": "Smitha complex", "landuse": "residential"}}, {"type": "Feature", "geometry": {"type": "Polygon", "coordinates": [[[78.3896917, 17.4390849], [78.3898365, 17.4390408], [78.3897858, 17.4388678], [78.3900687, 17.4387735], [78.3901703, 17.4387699], [78.3902407, 17.4387815], [78.3903003, 17.4388147], [78.3903245, 17.4388384], [78.3904257, 17.4391621], [78.3905612, 17.439505], [78.3906276, 17.4396592], [78.3906571, 17.4396848], [78.3906913, 17.4396982], [78.3907657, 17.4397103], [78.39082, 17.4397423], [78.3908408, 17.4397871], [78.3910013, 17.4405533], [78.390518, 17.4406414], [78.3903784, 17.4402377], [78.3902613, 17.4398989], [78.3900003, 17.4399794], [78.3899346, 17.4398101], [78.3896917, 17.4390849]]]}, "properties": {"osm_id": 68907610, "name": "Fortune Towers", "landuse": "residential"}}, {"type": "Feature", "geometry": {"type": "Polygon", "coordinates": [[[78.3788381, 17.4450112], [78.3788332, 17.4442471], [78.3790531, 17.4441218], [78.3802414, 17.4439094], [78.3804157, 17.4436766], [78.3804556, 17.4436326], [78.3806532, 17.4438119], [78.3807209, 17.4439935], [78.3807819, 17.4441642], [78.3807928, 17.4444227], [78.3807919, 17.4449855], [78.3788381, 17.4450112]]]}, "properties": {"osm_id": 89898211, "name": "Maximus Towers", "landuse": "commercial"}}, {"type": "Feature", "geometry": {"type": "Polygon", "coordinates": [[[78.3868062, 17.4473772], [78.386834, 17.4473464], [78.3867447, 17.4460941], [78.386019, 17.4461386], [78.3860721, 17.4474096], [78.3868062, 17.4473772]]]}, "properties": {"osm_id": 112129322, "name": "Capital Park", "landuse": "commercial"}}, {"type": "Feature", "geometry": {"type": "Polygon", "coordinates": [[[78.3900635, 17.441153], [78.3899434, 17.4407949], [78.3902724, 17.4406851], [78.3903382, 17.4409975], [78.3903503, 17.4410503], [78.3903182, 17.4410618], [78.3901768, 17.4411124], [78.3900635, 17.441153]]]}, "properties": {"osm_id": 112129324, "name": "Maruthi", "landuse": "commercial"}}, {"type": "Feature", "geometry": {"type": "Polygon", "coordinates": [[[78.3926142, 17.440202], [78.3930278, 17.440127], [78.3934069, 17.4400661], [78.3932929, 17.4396798], [78.3938167, 17.4395542], [78.3937041, 17.4392913], [78.3935431, 17.4390335], [78.3933178, 17.4385186], [78.3923501, 17.4387778], [78.3925473, 17.4397901], [78.3926142, 17.440202]]]}, "properties": {"osm_id": 112129325, "name": "Vasantha Enclave", "landuse": "residential"}}, {"type": "Feature", "geometry": {"type": "Polygon", "coordinates": [[[78.3933583, 17.4397332], [78.393425, 17.4399605], [78.3939025, 17.4397891], [78.393825, 17.4395746], [78.3933583, 17.4397332]]]}, "properties": {"osm_id": 112129326, "name": "Kalyani Residency", "landuse": "residential"}}, {"type": "Feature", "geometry": {"type": "Polygon", "coordinates": [[[78.3802382, 17.4370429], [78.3788146, 17.4353748], [78.3793642, 17.43492], [78.379976, 17.4344283], [78.3800628, 17.4343581], [78.3803206, 17.4346446], [78.3807744, 17.4351666], [78.3815044, 17.4360065], [78.3802382, 17.4370429]]]}, "properties": {"osm_id": 122796933, "name": null, "landuse": "commercial"}}, {"type": "Feature", "geometry": {"type": "Polygon", "coordinates": [[[78.3671857, 17.4404154], [78.3669591, 17.4401582], [78.3667306, 17.439798], [78.3672785, 17.4396709], [78.3690469, 17.4393565], [78.3696004, 17.4402167], [78.3690538, 17.4404078], [78.3684728, 17.4405905], [78.3676927, 17.4408358], [78.3675089, 17.4408131], [78.3671857, 17.4404154]]]}, "properties": {"osm_id": 122796942, "name": null, "landuse": "commercial"}}, {"type": "Feature", "geometry": {"type": "Polygon", "coordinates": [[[78.381398, 17.4313605], [78.3834794, 17.4297673], [78.3846262, 17.4310836], [78.3839412, 17.4315966], [78.3852838, 17.4331145], [78.3845788, 17.4336292], [78.3833492, 17.4321876], [78.3826168, 17.4327742], [78.381398, 17.4313605]]]}, "properties": {"osm_id": 122796944, "name": "RMZ Nexity", "landuse": "commercial"}}, {"type": "Feature", "geometry": {"type": "Polygon", "coordinates": [[[78.3776424, 17.4397556], [78.3774696, 17.4399628], [78.3773657, 17.4407135], [78.377341, 17.4414565], [78.3776687, 17.4412241], [78.3782385, 17.4411943], [78.3787147, 17.4433], [78.3788295, 17.4442019], [78.3788381, 17.4450112], [78.3788384, 17.4450365], [78.3823066, 17.4449531], [78.3820101, 17.4444872], [78.3816146, 17.4428387], [78.382275, 17.4426501], [78.3837994, 17.4418956], [78.3837381, 17.4417484], [78.3823148, 17.4418546], [78.381096, 17.4400502], [78.382227, 17.4388026], [78.3846402, 17.4388301], [78.3850466, 17.4388723], [78.3853564, 17.4388646], [78.3864901, 17.4384393], [78.3869032, 17.4370841], [78.3869873, 17.4367865], [78.3871024, 17.4364618], [78.3872105, 17.4361319], [78.3870162, 17.4356622], [78.3869675, 17.4356946], [78.3868591, 17.4357666], [78.3866505, 17.4359053], [78.3859332, 17.4362608], [78.3850178, 17.4367887], [78.3844875, 17.4353856], [78.383324, 17.4360497], [78.382779, 17.4365914], [78.3809608, 17.4382879], [78.3804645, 17.4388311], [78.379816, 17.4396479], [78.3783347, 17.4405645], [78.3776424, 17.4397556]]]}, "properties": {"osm_id": 292816639, "name": "Mindspace Technology Park", "landuse": "commercial"}}, {"type": "Feature", "geometry": {"type": "Polygon", "coordinates": [[[78.3857867, 17.4473557], [78.3857974, 17.447593], [78.3859109, 17.4475883], [78.3859003, 17.4473532], [78.3859002, 17.4473511], [78.3857867, 17.4473557]]]}, "properties": {"osm_id": 356178236, "name": "Vishnu Nest", "landuse": "residential"}}, {"type": "Feature", "geometry": {"type": "Polygon", "coordinates": [[[78.3657643, 17.445891], [78.3668729, 17.4441062], [78.3654515, 17.4437428], [78.3651253, 17.4436734], [78.3651671, 17.4441513], [78.3652031, 17.4443371], [78.3651858, 17.4446113], [78.3652266, 17.4446123], [78.3652692, 17.4447634], [78.3654962, 17.444814], [78.3656717, 17.4448167], [78.3656547, 17.4449378], [78.3655658, 17.444991], [78.3652984, 17.4450662], [78.3653424, 17.4453439], [78.3651271, 17.4454065], [78.3651335, 17.4454575], [78.3644025, 17.4457293], [78.364329, 17.4459366], [78.3646105, 17.4461334], [78.3648768, 17.4460792], [78.36502, 17.4460493], [78.3651974, 17.4460423], [78.3653191, 17.4463215], [78.3654716, 17.4464127], [78.3657643, 17.445891]]]}, "properties": {"osm_id": 374411584, "name": "Ramky Towers", "landuse": "residential"}}, {"type": "Feature", "geometry": {"type": "Polygon", "coordinates": [[[78.3785131, 17.4388721], [78.3775941, 17.4396816], [78.3776424, 17.4397556], [78.3783347, 17.4405645], [78.379816, 17.4396479], [78.3804645, 17.4388311], [78.3809608, 17.4382879], [78.382779, 17.4365914], [78.3822084, 17.4358968], [78.3785131, 17.4388721]]]}, "properties": {"osm_id": 513239609, "name": null, "landuse": "commercial"}}, {"type": "Feature", "geometry": {"type": "Polygon", "coordinates": [[[78.3759331, 17.4334729], [78.3777818, 17.4337224], [78.3781949, 17.4304276], [78.3764246, 17.4301564], [78.3759331, 17.4334729]]]}, "properties": {"osm_id": 513239611, "name": "My Home Bhuja", "landuse": "residential"}}, {"type": "Feature", "geometry": {"type": "Polygon", "coordinates": [[[78.3857408, 17.4332911], [78.3860309, 17.4332937], [78.3861227, 17.4333021], [78.3863333, 17.4333172], [78.3869369, 17.4331853], [78.3870912, 17.4337564], [78.3875113, 17.4353584], [78.3871442, 17.4355655], [78.3870162, 17.4356622], [78.3869675, 17.4356946], [78.3868591, 17.4357666], [78.3866505, 17.4359053], [78.3857408, 17.4332911]]]}, "properties": {"osm_id": 520252723, "name": null, "landuse": "retail"}}, {"type": "Feature", "geometry": {"type": "Polygon", "coordinates": [[[78.3815044, 17.4360065], [78.3836775, 17.4342829], [78.3822602, 17.432637], [78.3813143, 17.4315596], [78.3791134, 17.4333029], [78.3800628, 17.4343581], [78.3803206, 17.4346446], [78.3807744, 17.4351666], [78.3815044, 17.4360065]]]}, "properties": {"osm_id": 551147907, "name": "Salapuria Sattva Knowledge City", "landuse": "commercial"}}, {"type": "Feature", "geometry": {"type": "Polygon", "coordinates": [[[78.3846792, 17.4352285], [78.3847359, 17.4354252], [78.3849506, 17.4359036], [78.3854231, 17.4356915], [78.3852498, 17.4350782], [78.3846792, 17.4352285]]]}, "properties": {"osm_id": 570972113, "name": "Atria Block", "landuse": "commercial"}}, {"type": "Feature", "geometry": {"type": "Polygon", "coordinates": [[[78.3870912, 17.4337564], [78.3869369, 17.4331853], [78.3873718, 17.4330331], [78.3876115, 17.4333791], [78.3870912, 17.4337564]]]}, "properties": {"osm_id": 626346955, "name": null, "landuse": "commercial"}}, {"type": "Feature", "geometry": {"type": "Polygon", "coordinates": [[[78.388996, 17.4385755], [78.3893158, 17.4385089], [78.3896768, 17.4384338], [78.3897858, 17.4388678], [78.3898365, 17.4390408], [78.3896917, 17.4390849], [78.3899346, 17.4398101], [78.3894657, 17.439953], [78.388996, 17.4385755]]]}, "properties": {"osm_id": 626578817, "name": "Aspir Apartments", "landuse": "residential"}}, {"type": "Feature", "geometry": {"type": "Polygon", "coordinates": [[[78.3690526, 17.4425445], [78.3688793, 17.4422701], [78.3687801, 17.4421889], [78.3686254, 17.4421118], [78.3672285, 17.4423423], [78.3673439, 17.4428386], [78.3690526, 17.4425445]]]}, "properties": {"osm_id": 626584389, "name": "Babukhan Solitire", "landuse": "residential"}}, {"type": "Feature", "geometry": {"type": "Polygon", "coordinates": [[[78.3670959, 17.4387739], [78.3678323, 17.4385408], [78.3674195, 17.4376902], [78.3667558, 17.4379737], [78.3670959, 17.4387739]]]}, "properties": {"osm_id": 626623750, "name": "Magnum Opus", "landuse": "residential"}}, {"type": "Feature", "geometry": {"type": "Polygon", "coordinates": [[[78.3826168, 17.4327742], [78.3833492, 17.4321876], [78.3845788, 17.4336292], [78.3838328, 17.4342005], [78.3826168, 17.4327742]]]}, "properties": {"osm_id": 626633076, "name": "My Home Abhra", "landuse": "residential"}}, {"type": "Feature", "geometry": {"type": "Polygon", "coordinates": [[[78.3889974, 17.4468054], [78.3896948, 17.4471446], [78.38953, 17.4474531], [78.3888326, 17.4471139], [78.3889974, 17.4468054]]]}, "properties": {"osm_id": 626825968, "name": null, "landuse": "residential"}}, {"type": "Feature", "geometry": {"type": "Polygon", "coordinates": [[[78.3736612, 17.4469812], [78.3732154, 17.448005], [78.3727096, 17.448593], [78.3724295, 17.4489186], [78.3731295, 17.449536], [78.3738395, 17.4487894], [78.3739518, 17.448635], [78.3741169, 17.4483578], [78.3742721, 17.4480081], [78.3744075, 17.4475734], [78.374457, 17.4470442], [78.3736612, 17.4469812]]]}, "properties": {"osm_id": 630921796, "name": "Dell", "landuse": "commercial"}}, {"type": "Feature", "geometry": {"type": "Polygon", "coordinates": [[[78.3878919, 17.4478824], [78.3881769, 17.4480325], [78.3880025, 17.4483584], [78.3877133, 17.4482164], [78.3878919, 17.4478824]]]}, "properties": {"osm_id": 632255363, "name": null, "landuse": "construction"}}, {"type": "Feature", "geometry": {"type": "Polygon", "coordinates": [[[78.3802667, 17.4470397], [78.3805617, 17.446968], [78.380543, 17.4468734], [78.3802452, 17.4469501], [78.3802667, 17.4470397]]]}, "properties": {"osm_id": 642167944, "name": null, "landuse": "commercial"}}, {"type": "Feature", "geometry": {"type": "Polygon", "coordinates": [[[78.3805242, 17.4471459], [78.3806207, 17.4471203], [78.3805805, 17.447], [78.3804947, 17.447023], [78.3805242, 17.4471459]]]}, "properties": {"osm_id": 642167945, "name": null, "landuse": "commercial"}}, {"type": "Feature", "geometry": {"type": "Polygon", "coordinates": [[[78.3800682, 17.4472649], [78.380036, 17.4471395], [78.3801353, 17.4471318], [78.3801728, 17.4472393], [78.3800682, 17.4472649]]]}, "properties": {"osm_id": 642167946, "name": null, "landuse": "commercial"}}, {"type": "Feature", "geometry": {"type": "Polygon", "coordinates": [[[78.3797624, 17.4473263], [78.3797329, 17.4472034], [78.3798107, 17.4471907], [78.379859, 17.4473135], [78.3797624, 17.4473263]]]}, "properties": {"osm_id": 642167947, "name": null, "landuse": "commercial"}}, {"type": "Feature", "geometry": {"type": "Polygon", "coordinates": [[[78.3796391, 17.4473672], [78.3797383, 17.4473442], [78.3797115, 17.447229], [78.3795984, 17.4472578], [78.3796391, 17.4473672]]]}, "properties": {"osm_id": 642167948, "name": null, "landuse": "commercial"}}, {"type": "Feature", "geometry": {"type": "Polygon", "coordinates": [[[78.3866978, 17.4448491], [78.3866112, 17.4447778], [78.386707, 17.444672], [78.3867936, 17.4447433], [78.3866978, 17.4448491]]]}, "properties": {"osm_id": 642169196, "name": "Cloudsoft Solution", "landuse": "commercial"}}, {"type": "Feature", "geometry": {"type": "Polygon", "coordinates": [[[78.3867936, 17.4447433], [78.386707, 17.444672], [78.3868434, 17.4445213], [78.38693, 17.4445926], [78.3868837, 17.4446437], [78.3867936, 17.4447433]]]}, "properties": {"osm_id": 642169198, "name": "Raja Wines", "landuse": "commercial"}}, {"type": "Feature", "geometry": {"type": "Polygon", "coordinates": [[[78.3869467, 17.4444072], [78.387019, 17.4444668], [78.3871511, 17.4445755], [78.3870015, 17.4447408], [78.3868837, 17.4446437], [78.38693, 17.4445926], [78.3868434, 17.4445213], [78.3869467, 17.4444072]]]}, "properties": {"osm_id": 642169199, "name": "Prestige Mall", "landuse": "commercial"}}, {"type": "Feature", "geometry": {"type": "Polygon", "coordinates": [[[78.3869467, 17.4444072], [78.3870707, 17.4442701], [78.3871431, 17.4443297], [78.387019, 17.4444668], [78.3869467, 17.4444072]]]}, "properties": {"osm_id": 642169201, "name": null, "landuse": "commercial"}}, {"type": "Feature", "geometry": {"type": "Polygon", "coordinates": [[[78.3871459, 17.4443184], [78.3870689, 17.4442626], [78.3871537, 17.444156], [78.3872307, 17.4442117], [78.3871459, 17.4443184]]]}, "properties": {"osm_id": 642169204, "name": null, "landuse": "commercial"}}, {"type": "Feature", "geometry": {"type": "Polygon", "coordinates": [[[78.3871164, 17.4433131], [78.3872501, 17.4433522], [78.3873294, 17.4431634], [78.3873515, 17.4431118], [78.3872495, 17.4430723], [78.3871164, 17.4433131]]]}, "properties": {"osm_id": 642169205, "name": "Gym and Jockey", "landuse": "commercial"}}, {"type": "Feature", "geometry": {"type": "Polygon", "coordinates": [[[78.3868578, 17.4431431], [78.3868118, 17.4432185], [78.3867194, 17.4431672], [78.3867254, 17.4431575], [78.3867654, 17.4430918], [78.3868578, 17.4431431]]]}, "properties": {"osm_id": 642169206, "name": null, "landuse": "residential"}}, {"type": "Feature", "geometry": {"type": "Polygon", "coordinates": [[[78.3867254, 17.4431575], [78.3867654, 17.4430918], [78.386676, 17.4430422], [78.386636, 17.4431079], [78.3867254, 17.4431575]]]}, "properties": {"osm_id": 642169208, "name": null, "landuse": "residential"}}, {"type": "Feature", "geometry": {"type": "Polygon", "coordinates": [[[78.3867742, 17.4432675], [78.3866907, 17.4432173], [78.3866599, 17.443264], [78.3866343, 17.4433029], [78.3867178, 17.443353], [78.3867742, 17.4432675]]]}, "properties": {"osm_id": 642169209, "name": null, "landuse": "residential"}}, {"type": "Feature", "geometry": {"type": "Polygon", "coordinates": [[[78.3867111, 17.4431864], [78.3866162, 17.4431295], [78.386565, 17.4432071], [78.3866599, 17.443264], [78.3866907, 17.4432173], [78.3867111, 17.4431864]]]}, "properties": {"osm_id": 642169210, "name": null, "landuse": "residential"}}, {"type": "Feature", "geometry": {"type": "Polygon", "coordinates": [[[78.3866599, 17.443264], [78.386565, 17.4432071], [78.3864998, 17.443306], [78.3865947, 17.4433629], [78.3866343, 17.4433029], [78.3866599, 17.443264]]]}, "properties": {"osm_id": 642169212, "name": null, "landuse": "residential"}}, {"type": "Feature", "geometry": {"type": "Polygon", "coordinates": [[[78.3865947, 17.4433629], [78.3864998, 17.443306], [78.3864442, 17.4433903], [78.3865148, 17.4434326], [78.3865391, 17.4434472], [78.3865947, 17.4433629]]]}, "properties": {"osm_id": 642169213, "name": null, "landuse": "residential"}}, {"type": "Feature", "geometry": {"type": "Polygon", "coordinates": [[[78.3866416, 17.4437515], [78.3865527, 17.4437025], [78.3865059, 17.4437798], [78.3865949, 17.4438288], [78.3866416, 17.4437515]]]}, "properties": {"osm_id": 642169214, "name": null, "landuse": "residential"}}, {"type": "Feature", "geometry": {"type": "Polygon", "coordinates": [[[78.386445, 17.4435477], [78.3863614, 17.4435], [78.3863039, 17.4435915], [78.3863876, 17.4436392], [78.386445, 17.4435477]]]}, "properties": {"osm_id": 642169216, "name": null, "landuse": "residential"}}, {"type": "Feature", "geometry": {"type": "Polygon", "coordinates": [[[78.3860106, 17.4435705], [78.386158, 17.4436735], [78.3861049, 17.4437426], [78.3859575, 17.4436397], [78.3860106, 17.4435705]]]}, "properties": {"osm_id": 642169219, "name": null, "landuse": "residential"}}, {"type": "Feature", "geometry": {"type": "Polygon", "coordinates": [[[78.3852654, 17.4433846], [78.3852401, 17.4433918], [78.3849334, 17.4434793], [78.3848824, 17.4434973], [78.3849728, 17.443812], [78.3853652, 17.4437032], [78.3852654, 17.4433846]]]}, "properties": {"osm_id": 642169223, "name": null, "landuse": "commercial"}}, {"type": "Feature", "geometry": {"type": "Polygon", "coordinates": [[[78.3793896, 17.4474133], [78.3794862, 17.4473902], [78.3794164, 17.4471497], [78.3793306, 17.4471804], [78.3793896, 17.4474133]]]}, "properties": {"osm_id": 642171971, "name": null, "landuse": "commercial"}}, {"type": "Feature", "geometry": {"type": "Polygon", "coordinates": [[[78.3792394, 17.4474516], [78.3793708, 17.4474261], [78.379344, 17.4473288], [78.379218, 17.4473544], [78.3792394, 17.4474516]]]}, "properties": {"osm_id": 642171973, "name": null, "landuse": "commercial"}}, {"type": "Feature", "geometry": {"type": "Polygon", "coordinates": [[[78.3790034, 17.4471062], [78.3789497, 17.4469808], [78.3790838, 17.4469194], [78.3791315, 17.4470481], [78.3790034, 17.4471062]]]}, "properties": {"osm_id": 642171975, "name": null, "landuse": "commercial"}}, {"type": "Feature", "geometry": {"type": "Polygon", "coordinates": [[[78.3792582, 17.4470499], [78.3792421, 17.4469245], [78.3793896, 17.4468759], [78.3794164, 17.4470141], [78.3792582, 17.4470499]]]}, "properties": {"osm_id": 642171977, "name": null, "landuse": "commercial"}}, {"type": "Feature", "geometry": {"type": "Polygon", "coordinates": [[[78.3794781, 17.4469808], [78.3796096, 17.4469501], [78.3795452, 17.4466712], [78.3794057, 17.4466968], [78.3794781, 17.4469808]]]}, "properties": {"osm_id": 642171979, "name": null, "landuse": "commercial"}}, {"type": "Feature", "geometry": {"type": "Polygon", "coordinates": [[[78.3805191, 17.4467315], [78.3804773, 17.4465955], [78.3806029, 17.446567], [78.3806433, 17.4467], [78.3805191, 17.4467315]]]}, "properties": {"osm_id": 642171984, "name": null, "landuse": "commercial"}}, {"type": "Feature", "geometry": {"type": "Polygon", "coordinates": [[[78.3801699, 17.4463656], [78.3802951, 17.446333], [78.3802458, 17.4461991], [78.3801396, 17.4462281], [78.3801699, 17.4463656]]]}, "properties": {"osm_id": 642175112, "name": null, "landuse": "commercial"}}, {"type": "Feature", "geometry": {"type": "Polygon", "coordinates": [[[78.3803216, 17.4463258], [78.3802875, 17.4461991], [78.3803975, 17.4461774], [78.3804316, 17.4463005], [78.3803216, 17.4463258]]]}, "properties": {"osm_id": 642175113, "name": null, "landuse": "commercial"}}, {"type": "Feature", "geometry": {"type": "Polygon", "coordinates": [[[78.3804646, 17.4462971], [78.3804305, 17.4461668], [78.3805519, 17.4461198], [78.3805898, 17.4462682], [78.3804646, 17.4462971]]]}, "properties": {"osm_id": 642175114, "name": null, "landuse": "commercial"}}, {"type": "Feature", "geometry": {"type": "Polygon", "coordinates": [[[78.384596, 17.4439231], [78.3847311, 17.4438847], [78.3846807, 17.4437462], [78.3845496, 17.4437827], [78.384596, 17.4439231]]]}, "properties": {"osm_id": 642186632, "name": null, "landuse": "commercial"}}, {"type": "Feature", "geometry": {"type": "Polygon", "coordinates": [[[78.3841162, 17.4432471], [78.38427, 17.4432076], [78.3842138, 17.4430271], [78.3840719, 17.4430778], [78.3841162, 17.4432471]]]}, "properties": {"osm_id": 642186633, "name": null, "landuse": "residential"}}, {"type": "Feature", "geometry": {"type": "Polygon", "coordinates": [[[78.3840187, 17.4431286], [78.3839862, 17.4429961], [78.3838472, 17.4430271], [78.3838886, 17.4431681], [78.3840187, 17.4431286]]]}, "properties": {"osm_id": 642186634, "name": null, "landuse": "commercial"}}, {"type": "Feature", "geometry": {"type": "Polygon", "coordinates": [[[78.3840778, 17.4432527], [78.3840482, 17.4431427], [78.3838856, 17.4431907], [78.3839241, 17.4433035], [78.3840778, 17.4432527]]]}, "properties": {"osm_id": 642186635, "name": null, "landuse": "commercial"}}, {"type": "Feature", "geometry": {"type": "Polygon", "coordinates": [[[78.384049, 17.4422138], [78.3845634, 17.4420698], [78.3845378, 17.4419672], [78.3840183, 17.4420942], [78.384049, 17.4422138]]]}, "properties": {"osm_id": 642186636, "name": null, "landuse": "commercial"}}, {"type": "Feature", "geometry": {"type": "Polygon", "coordinates": [[[78.3841079, 17.4424043], [78.3847067, 17.4422163], [78.384763, 17.4423652], [78.3841616, 17.4425581], [78.3841079, 17.4424043]]]}, "properties": {"osm_id": 642186637, "name": null, "landuse": "commercial"}}, {"type": "Feature", "geometry": {"type": "Polygon", "coordinates": [[[78.3818411, 17.4436354], [78.3817969, 17.4434744], [78.3820046, 17.4434348], [78.3820305, 17.4435958], [78.3818411, 17.4436354]]]}, "properties": {"osm_id": 642186638, "name": null, "landuse": "residential"}}, {"type": "Feature", "geometry": {"type": "Polygon", "coordinates": [[[78.382127, 17.4436953], [78.382088, 17.4435319], [78.3822256, 17.4434972], [78.3822619, 17.443673], [78.382127, 17.4436953]]]}, "properties": {"osm_id": 642186639, "name": null, "landuse": "residential"}}, {"type": "Feature", "geometry": {"type": "Polygon", "coordinates": [[[78.3821348, 17.4438253], [78.3823006, 17.4437888], [78.3823304, 17.4439449], [78.3821624, 17.4439794], [78.3821348, 17.4438253]]]}, "properties": {"osm_id": 642186640, "name": null, "landuse": "commercial"}}, {"type": "Feature", "geometry": {"type": "Polygon", "coordinates": [[[78.3821007, 17.4443952], [78.3820667, 17.4442674], [78.3823729, 17.4442025], [78.3824005, 17.4443262], [78.3821007, 17.4443952]]]}, "properties": {"osm_id": 642186641, "name": null, "landuse": "residential"}}, {"type": "Feature", "geometry": {"type": "Polygon", "coordinates": [[[78.3823542, 17.4449961], [78.3822084, 17.4445176], [78.3825817, 17.4444425], [78.3827071, 17.4449321], [78.3823542, 17.4449961]]]}, "properties": {"osm_id": 642186642, "name": null, "landuse": "residential"}}, {"type": "Feature", "geometry": {"type": "Polygon", "coordinates": [[[78.3823921, 17.4453439], [78.3823396, 17.4451102], [78.3826867, 17.4450351], [78.3827479, 17.4452604], [78.3823921, 17.4453439]]]}, "properties": {"osm_id": 642186643, "name": null, "landuse": "residential"}}, {"type": "Feature", "geometry": {"type": "Polygon", "coordinates": [[[78.3839939, 17.4457171], [78.3841274, 17.4455771], [78.3839379, 17.4454396], [78.3837618, 17.4455338], [78.3839939, 17.4457171]]]}, "properties": {"osm_id": 642186644, "name": null, "landuse": "commercial"}}, {"type": "Feature", "geometry": {"type": "Polygon", "coordinates": [[[78.3837911, 17.4459539], [78.3836817, 17.4458673], [78.3838552, 17.4456968], [78.3839619, 17.4457833], [78.3837911, 17.4459539]]]}, "properties": {"osm_id": 642186645, "name": null, "landuse": "commercial"}}, {"type": "Feature", "geometry": {"type": "Polygon", "coordinates": [[[78.3825342, 17.4464783], [78.3824595, 17.4462441], [78.3826409, 17.4461958], [78.3827103, 17.44643], [78.3825342, 17.4464783]]]}, "properties": {"osm_id": 642186646, "name": null, "landuse": "commercial"}}, {"type": "Feature", "geometry": {"type": "Polygon", "coordinates": [[[78.3835663, 17.4390747], [78.383375, 17.4390781], [78.3833503, 17.4388011], [78.3835663, 17.4387977], [78.3835663, 17.4390747]]]}, "properties": {"osm_id": 642191719, "name": null, "landuse": "residential"}}, {"type": "Feature", "geometry": {"type": "Polygon", "coordinates": [[[78.3836548, 17.4392504], [78.3836371, 17.438845], [78.3838495, 17.4388281], [78.3838849, 17.4392537], [78.3836548, 17.4392504]]]}, "properties": {"osm_id": 642191720, "name": null, "landuse": "residential"}}, {"type": "Feature", "geometry": {"type": "Polygon", "coordinates": [[[78.3839243, 17.4392486], [78.3838925, 17.438877], [78.3841191, 17.4388432], [78.3842147, 17.4392115], [78.3839243, 17.4392486]]]}, "properties": {"osm_id": 642191721, "name": null, "landuse": "residential"}}, {"type": "Feature", "geometry": {"type": "Polygon", "coordinates": [[[78.383327, 17.4396828], [78.3833067, 17.4394642], [78.3834402, 17.4394504], [78.3834605, 17.4396634], [78.383327, 17.4396828]]]}, "properties": {"osm_id": 642191722, "name": null, "landuse": "residential"}}, {"type": "Feature", "geometry": {"type": "Polygon", "coordinates": [[[78.3834895, 17.4396579], [78.3834692, 17.4394421], [78.3835765, 17.4394282], [78.3835968, 17.439644], [78.3834895, 17.4396579]]]}, "properties": {"osm_id": 642191723, "name": null, "landuse": "residential"}}, {"type": "Feature", "geometry": {"type": "Polygon", "coordinates": [[[78.3831878, 17.4399429], [78.3831559, 17.4397519], [78.3832835, 17.4397326], [78.3833009, 17.439929], [78.3831878, 17.4399429]]]}, "properties": {"osm_id": 642191724, "name": null, "landuse": "residential"}}, {"type": "Feature", "geometry": {"type": "Polygon", "coordinates": [[[78.385555, 17.440969], [78.3854481, 17.4404332], [78.385814, 17.4403599], [78.3859601, 17.440887], [78.385555, 17.440969]]]}, "properties": {"osm_id": 642195649, "name": null, "landuse": "residential"}}, {"type": "Feature", "geometry": {"type": "Polygon", "coordinates": [[[78.3865096, 17.4408266], [78.3859601, 17.440887], [78.3861369, 17.4417216], [78.3865541, 17.4414913], [78.3865096, 17.4408266]]]}, "properties": {"osm_id": 642198284, "name": null, "landuse": "residential"}}, {"type": "Feature", "geometry": {"type": "Polygon", "coordinates": [[[78.3858846, 17.4402181], [78.3861772, 17.4401411], [78.386266, 17.4404481], [78.3859734, 17.4405251], [78.3858846, 17.4402181]]]}, "properties": {"osm_id": 642198286, "name": null, "landuse": "residential"}}, {"type": "Feature", "geometry": {"type": "Polygon", "coordinates": [[[78.386706, 17.4400143], [78.3864098, 17.4400899], [78.3865111, 17.440451], [78.3868072, 17.4403754], [78.386706, 17.4400143]]]}, "properties": {"osm_id": 642198287, "name": null, "landuse": "residential"}}, {"type": "Feature", "geometry": {"type": "Polygon", "coordinates": [[[78.3872894, 17.4405754], [78.3871695, 17.4402538], [78.387418, 17.4401695], [78.3875378, 17.4404912], [78.3872894, 17.4405754]]]}, "properties": {"osm_id": 642198288, "name": null, "landuse": "residential"}}, {"type": "Feature", "geometry": {"type": "Polygon", "coordinates": [[[78.3876585, 17.4405483], [78.3875472, 17.4402669], [78.3877875, 17.4401804], [78.3878988, 17.4404619], [78.3876585, 17.4405483]]]}, "properties": {"osm_id": 642198289, "name": null, "landuse": "residential"}}, {"type": "Feature", "geometry": {"type": "Polygon", "coordinates": [[[78.3872311, 17.439964], [78.387149, 17.4397133], [78.3867421, 17.439833], [78.3868174, 17.4400709], [78.3872311, 17.439964]]]}, "properties": {"osm_id": 642198290, "name": null, "landuse": "residential"}}, {"type": "Feature", "geometry": {"type": "Polygon", "coordinates": [[[78.3888698, 17.4386875], [78.3883926, 17.4386276], [78.3884516, 17.4382646], [78.3887111, 17.4382614], [78.3888698, 17.4386875]]]}, "properties": {"osm_id": 642206133, "name": null, "landuse": "commercial"}}, {"type": "Feature", "geometry": {"type": "Polygon", "coordinates": [[[78.3875605, 17.4378812], [78.3873111, 17.4379528], [78.3873969, 17.4382289], [78.3876458, 17.4381492], [78.3875605, 17.4378812]]]}, "properties": {"osm_id": 642206136, "name": null, "landuse": "commercial"}}, {"type": "Feature", "geometry": {"type": "Polygon", "coordinates": [[[78.3874041, 17.4383288], [78.3872521, 17.4378637], [78.3867349, 17.4380175], [78.3868868, 17.4384826], [78.3874041, 17.4383288]]]}, "properties": {"osm_id": 642206140, "name": null, "landuse": "residential"}}, {"type": "Feature", "geometry": {"type": "Polygon", "coordinates": [[[78.3874447, 17.4376778], [78.3881595, 17.437647], [78.3880275, 17.4368066], [78.3876576, 17.4367985], [78.3874447, 17.4376778]]]}, "properties": {"osm_id": 642206141, "name": null, "landuse": "residential"}}, {"type": "Feature", "geometry": {"type": "Polygon", "coordinates": [[[78.3875137, 17.4370114], [78.3877112, 17.4366024], [78.3871024, 17.4364618], [78.3869873, 17.4367865], [78.3873992, 17.4369763], [78.3875137, 17.4370114]]]}, "properties": {"osm_id": 642206143, "name": null, "landuse": "commercial"}}, {"type": "Feature", "geometry": {"type": "Polygon", "coordinates": [[[78.3869032, 17.4370841], [78.3872869, 17.4372252], [78.3873992, 17.4369763], [78.3869873, 17.4367865], [78.3869032, 17.4370841]]]}, "properties": {"osm_id": 642206145, "name": null, "landuse": "commercial"}}, {"type": "Feature", "geometry": {"type": "Polygon", "coordinates": [[[78.3871024, 17.4364618], [78.3872105, 17.4361319], [78.3875823, 17.4360879], [78.3883745, 17.4360709], [78.3884162, 17.4367681], [78.3877112, 17.4366024], [78.3871024, 17.4364618]]]}, "properties": {"osm_id": 642206147, "name": null, "landuse": "commercial"}}, {"type": "Feature", "geometry": {"type": "Polygon", "coordinates": [[[78.3884087, 17.4367713], [78.3880625, 17.4368066], [78.388082, 17.4369804], [78.3884282, 17.436945], [78.3884087, 17.4367713]]]}, "properties": {"osm_id": 642206149, "name": null, "landuse": "commercial"}}, {"type": "Feature", "geometry": {"type": "Polygon", "coordinates": [[[78.3884282, 17.436945], [78.388082, 17.4369804], [78.3881226, 17.4373423], [78.3884688, 17.4373069], [78.3884282, 17.436945]]]}, "properties": {"osm_id": 642206150, "name": null, "landuse": "commercial"}}, {"type": "Feature", "geometry": {"type": "Polygon", "coordinates": [[[78.3892527, 17.437557], [78.3892339, 17.4373735], [78.3896058, 17.4373295], [78.3896213, 17.4375225], [78.3892527, 17.437557]]]}, "properties": {"osm_id": 642206164, "name": null, "landuse": "commercial"}}, {"type": "Feature", "geometry": {"type": "Polygon", "coordinates": [[[78.3888357, 17.4382418], [78.3887075, 17.4377424], [78.3891775, 17.4376885], [78.3892347, 17.4382088], [78.3888357, 17.4382418]]]}, "properties": {"osm_id": 642206167, "name": null, "landuse": "commercial"}}, {"type": "Feature", "geometry": {"type": "Polygon", "coordinates": [[[78.3895943, 17.4377834], [78.3895797, 17.4376288], [78.3898924, 17.4376019], [78.389907, 17.4377564], [78.3895943, 17.4377834]]]}, "properties": {"osm_id": 642206169, "name": null, "landuse": "commercial"}}, {"type": "Feature", "geometry": {"type": "Polygon", "coordinates": [[[78.3899315, 17.4379815], [78.3896129, 17.4380079], [78.3896304, 17.4381441], [78.3899081, 17.4381259], [78.3899513, 17.4381216], [78.3899315, 17.4379815]]]}, "properties": {"osm_id": 642206172, "name": null, "landuse": "commercial"}}, {"type": "Feature", "geometry": {"type": "Polygon", "coordinates": [[[78.3899081, 17.4381259], [78.3896304, 17.4381441], [78.3896768, 17.4384338], [78.3899359, 17.4383984], [78.3899081, 17.4381259]]]}, "properties": {"osm_id": 642206175, "name": null, "landuse": "residential"}}, {"type": "Feature", "geometry": {"type": "Polygon", "coordinates": [[[78.3896129, 17.4380079], [78.3892683, 17.4380301], [78.3893158, 17.4385089], [78.3896768, 17.4384338], [78.3896304, 17.4381441], [78.3896129, 17.4380079]]]}, "properties": {"osm_id": 642206178, "name": null, "landuse": "residential"}}, {"type": "Feature", "geometry": {"type": "Polygon", "coordinates": [[[78.3899904, 17.4383921], [78.3900687, 17.4387735], [78.3897858, 17.4388678], [78.3896768, 17.4384338], [78.3899359, 17.4383984], [78.3899904, 17.4383921]]]}, "properties": {"osm_id": 642206180, "name": null, "landuse": "commercial"}}, {"type": "Feature", "geometry": {"type": "Polygon", "coordinates": [[[78.3900634, 17.4378329], [78.3900585, 17.4377142], [78.3901068, 17.4376994], [78.3901222, 17.4378424], [78.3900634, 17.4378329]]]}, "properties": {"osm_id": 642206201, "name": null, "landuse": "commercial"}}, {"type": "Feature", "geometry": {"type": "Polygon", "coordinates": [[[78.3902396, 17.4378355], [78.3902205, 17.4376899], [78.3903766, 17.4376713], [78.3903957, 17.4378169], [78.3902396, 17.4378355]]]}, "properties": {"osm_id": 642206204, "name": null, "landuse": "commercial"}}, {"type": "Feature", "geometry": {"type": "Polygon", "coordinates": [[[78.3900636, 17.437687], [78.3900693, 17.4376089], [78.3902309, 17.4375791], [78.3902428, 17.4376768], [78.3900636, 17.437687]]]}, "properties": {"osm_id": 642206207, "name": null, "landuse": "commercial"}}, {"type": "Feature", "geometry": {"type": "Polygon", "coordinates": [[[78.3896508, 17.4379847], [78.3897614, 17.4379717], [78.3897434, 17.4378252], [78.3896349, 17.4378338], [78.3896508, 17.4379847]]]}, "properties": {"osm_id": 642206213, "name": null, "landuse": "residential"}}, {"type": "Feature", "geometry": {"type": "Polygon", "coordinates": [[[78.3908659, 17.4395624], [78.3908327, 17.4393706], [78.3905852, 17.4394096], [78.3906184, 17.4396013], [78.3908659, 17.4395624]]]}, "properties": {"osm_id": 642206221, "name": null, "landuse": "residential"}}, {"type": "Feature", "geometry": {"type": "Polygon", "coordinates": [[[78.3901181, 17.4402923], [78.3900003, 17.4399794], [78.3902613, 17.4398989], [78.3903784, 17.4402377], [78.3901181, 17.4402923]]]}, "properties": {"osm_id": 642206227, "name": null, "landuse": "residential"}}, {"type": "Feature", "geometry": {"type": "Polygon", "coordinates": [[[78.3912702, 17.4396841], [78.3911415, 17.4388688], [78.3915776, 17.4388749], [78.3915927, 17.438946], [78.3916717, 17.4393187], [78.3917015, 17.4394593], [78.3917348, 17.4396164], [78.3912702, 17.4396841]]]}, "properties": {"osm_id": 642206232, "name": null, "landuse": "residential"}}, {"type": "Feature", "geometry": {"type": "Polygon", "coordinates": [[[78.390855, 17.4392094], [78.3908208, 17.4390453], [78.3911339, 17.438986], [78.391168, 17.4391501], [78.390855, 17.4392094]]]}, "properties": {"osm_id": 642206235, "name": null, "landuse": "residential"}}, {"type": "Feature", "geometry": {"type": "Polygon", "coordinates": [[[78.3909141, 17.4395892], [78.3908796, 17.4394169], [78.3911964, 17.4393591], [78.391231, 17.4395314], [78.3909141, 17.4395892]]]}, "properties": {"osm_id": 642206238, "name": null, "landuse": "residential"}}, {"type": "Feature", "geometry": {"type": "Polygon", "coordinates": [[[78.3916717, 17.4393187], [78.3915927, 17.438946], [78.3917812, 17.4389071], [78.3918659, 17.4392791], [78.3916717, 17.4393187]]]}, "properties": {"osm_id": 642206241, "name": null, "landuse": "residential"}}, {"type": "Feature", "geometry": {"type": "Polygon", "coordinates": [[[78.3917558, 17.4397031], [78.3917348, 17.4396164], [78.3917015, 17.4394593], [78.3919956, 17.4394131], [78.3920575, 17.4396604], [78.3917558, 17.4397031]]]}, "properties": {"osm_id": 642206244, "name": null, "landuse": "residential"}}, {"type": "Feature", "geometry": {"type": "Polygon", "coordinates": [[[78.391919, 17.4391524], [78.3918733, 17.438992], [78.3920647, 17.4389424], [78.3921103, 17.4391028], [78.391919, 17.4391524]]]}, "properties": {"osm_id": 642206245, "name": null, "landuse": "commercial"}}, {"type": "Feature", "geometry": {"type": "Polygon", "coordinates": [[[78.3920964, 17.4396461], [78.3920584, 17.4394008], [78.392392, 17.4393539], [78.3924299, 17.4395992], [78.3920964, 17.4396461]]]}, "properties": {"osm_id": 642206248, "name": null, "landuse": "residential"}}, {"type": "Feature", "geometry": {"type": "Polygon", "coordinates": [[[78.3921712, 17.4393783], [78.3921381, 17.4392537], [78.3923273, 17.4392013], [78.3923635, 17.4393293], [78.3921712, 17.4393783]]]}, "properties": {"osm_id": 642206251, "name": null, "landuse": "commercial"}}, {"type": "Feature", "geometry": {"type": "Polygon", "coordinates": [[[78.3921381, 17.4392537], [78.392094, 17.4391088], [78.3922831, 17.4390564], [78.3923273, 17.4392013], [78.3921381, 17.4392537]]]}, "properties": {"osm_id": 642206253, "name": null, "landuse": "commercial"}}, {"type": "Feature", "geometry": {"type": "Polygon", "coordinates": [[[78.3908983, 17.4388328], [78.3908342, 17.438599], [78.3913661, 17.4384998], [78.391457, 17.4388172], [78.3908983, 17.4388328]]]}, "properties": {"osm_id": 642210541, "name": null, "landuse": "residential"}}, {"type": "Feature", "geometry": {"type": "Polygon", "coordinates": [[[78.3939001, 17.438825], [78.3943239, 17.4386364], [78.394571, 17.4391889], [78.3943317, 17.4392927], [78.3942394, 17.4391143], [78.3940495, 17.4391897], [78.3939001, 17.438825]]]}, "properties": {"osm_id": 642210542, "name": null, "landuse": "commercial"}}, {"type": "Feature", "geometry": {"type": "Polygon", "coordinates": [[[78.3936956, 17.4388129], [78.3935058, 17.4384457], [78.3936763, 17.4383746], [78.3936967, 17.4384232], [78.3937996, 17.4386186], [78.3938996, 17.4387687], [78.3936956, 17.4388129]]]}, "properties": {"osm_id": 642210543, "name": null, "landuse": "residential"}}, {"type": "Feature", "geometry": {"type": "Polygon", "coordinates": [[[78.3937996, 17.4386186], [78.3936967, 17.4384232], [78.3938376, 17.4383638], [78.3939251, 17.4385588], [78.3937996, 17.4386186]]]}, "properties": {"osm_id": 642210544, "name": null, "landuse": "residential"}}, {"type": "Feature", "geometry": {"type": "Polygon", "coordinates": [[[78.3936647, 17.4382181], [78.3935752, 17.4380265], [78.3937427, 17.4379403], [78.3938427, 17.4381576], [78.3936647, 17.4382181]]]}, "properties": {"osm_id": 642210545, "name": null, "landuse": "commercial"}}, {"type": "Feature", "geometry": {"type": "Polygon", "coordinates": [[[78.39417, 17.4366028], [78.3940114, 17.436242], [78.3942511, 17.4361462], [78.3943005, 17.4362427], [78.3944294, 17.4364964], [78.39417, 17.4366028]]]}, "properties": {"osm_id": 642221173, "name": null, "landuse": "commercial"}}, {"type": "Feature", "geometry": {"type": "Polygon", "coordinates": [[[78.3936717, 17.4351453], [78.3938836, 17.4350043], [78.39408, 17.4352484], [78.3938684, 17.4354006], [78.3936717, 17.4351453]]]}, "properties": {"osm_id": 642221177, "name": null, "landuse": "commercial"}}, {"type": "Feature", "geometry": {"type": "Polygon", "coordinates": [[[78.3938684, 17.4354006], [78.39408, 17.4352484], [78.3941694, 17.4353821], [78.3939426, 17.4355126], [78.3938684, 17.4354006]]]}, "properties": {"osm_id": 642221179, "name": null, "landuse": "commercial"}}, {"type": "Feature", "geometry": {"type": "Polygon", "coordinates": [[[78.3939426, 17.4355126], [78.3941694, 17.4353821], [78.3943159, 17.4356379], [78.3941012, 17.4357449], [78.3939426, 17.4355126]]]}, "properties": {"osm_id": 642221181, "name": null, "landuse": "commercial"}}, {"type": "Feature", "geometry": {"type": "Polygon", "coordinates": [[[78.3938427, 17.4381576], [78.3937427, 17.4379403], [78.3939714, 17.4378411], [78.3940658, 17.4380793], [78.3938427, 17.4381576]]]}, "properties": {"osm_id": 642221183, "name": null, "landuse": "commercial"}}, {"type": "Feature", "geometry": {"type": "Polygon", "coordinates": [[[78.3940956, 17.4377671], [78.3940065, 17.437565], [78.3941749, 17.4375013], [78.3942546, 17.4377091], [78.3940956, 17.4377671]]]}, "properties": {"osm_id": 642221186, "name": null, "landuse": "commercial"}}, {"type": "Feature", "geometry": {"type": "Polygon", "coordinates": [[[78.3713606, 17.4512175], [78.3707677, 17.4506757], [78.3716088, 17.4498379], [78.3722012, 17.4503957], [78.3713606, 17.4512175]]]}, "properties": {"osm_id": 724268237, "name": "Ananth Info Park", "landuse": "commercial"}}, {"type": "Feature", "geometry": {"type": "Polygon", "coordinates": [[[78.3713535, 17.4506341], [78.3711818, 17.4504652], [78.3714018, 17.4502657], [78.3715734, 17.4504345], [78.3713535, 17.4506341]]]}, "properties": {"osm_id": 724268239, "name": "Ananth Info Park Building B", "landuse": "commercial"}}, {"type": "Feature", "geometry": {"type": "Polygon", "coordinates": [[[78.3673883, 17.444219], [78.3681984, 17.4435639], [78.3687992, 17.4432824], [78.3703176, 17.444793], [78.3706504, 17.4446813], [78.3708353, 17.4451987], [78.3701678, 17.4454542], [78.370453, 17.4462291], [78.3697261, 17.446586], [78.3673883, 17.444219]]]}, "properties": {"osm_id": 734705959, "name": "Bamboos", "landuse": "residential"}}, {"type": "Feature", "geometry": {"type": "Polygon", "coordinates": [[[78.3871808, 17.447399], [78.3871689, 17.4475916], [78.3872016, 17.4476322], [78.387348, 17.4476409], [78.387362, 17.4474081], [78.3871808, 17.447399]]]}, "properties": {"osm_id": 742092847, "name": null, "landuse": "residential"}}, {"type": "Feature", "geometry": {"type": "Polygon", "coordinates": [[[78.3868595, 17.4408864], [78.3868958, 17.4410079], [78.3870727, 17.4409598], [78.3870364, 17.4408383], [78.3868595, 17.4408864]]]}, "properties": {"osm_id": 751007943, "name": null, "landuse": "commercial"}}, {"type": "Feature", "geometry": {"type": "Polygon", "coordinates": [[[78.3873184, 17.439512], [78.3874907, 17.4399925], [78.3875155, 17.4400104], [78.3875504, 17.4400104], [78.3875994, 17.4400104], [78.3876899, 17.4400264], [78.3877221, 17.4400411], [78.3877831, 17.4401262], [78.3879434, 17.4404473], [78.3885314, 17.4402906], [78.3884684, 17.4399797], [78.3891973, 17.4397513], [78.3889331, 17.4388883], [78.3889308, 17.4388597], [78.3883637, 17.4388058], [78.3878354, 17.438762], [78.3879957, 17.4392651], [78.3873184, 17.439512]]]}, "properties": {"osm_id": 751007953, "name": "DSR Fortune Prime", "landuse": "residential"}}, {"type": "Feature", "geometry": {"type": "Polygon", "coordinates": [[[78.3941218, 17.4475745], [78.394191, 17.4477702], [78.3945132, 17.4476665], [78.394444, 17.4474708], [78.3941218, 17.4475745]]]}, "properties": {"osm_id": 751542509, "name": null, "landuse": "commercial"}}, {"type": "Feature", "geometry": {"type": "Polygon", "coordinates": [[[78.388888, 17.4445361], [78.3889659, 17.4443588], [78.390985, 17.4447319], [78.3902082, 17.4460639], [78.389596, 17.4457573], [78.3892402, 17.4455791], [78.389539, 17.4449537], [78.3888346, 17.4446531], [78.388888, 17.4445361]]]}, "properties": {"osm_id": 751545197, "name": "Bollineni Homes", "landuse": "residential"}}, {"type": "Feature", "geometry": {"type": "Polygon", "coordinates": [[[78.3918705, 17.4500813], [78.3921147, 17.4500938], [78.3921229, 17.4499474], [78.3918787, 17.4499349], [78.3918705, 17.4500813]]]}, "properties": {"osm_id": 751771295, "name": null, "landuse": "industrial"}}, {"type": "Feature", "geometry": {"type": "Polygon", "coordinates": [[[78.3937119, 17.4447522], [78.3939618, 17.4446773], [78.3940342, 17.4448969], [78.3937843, 17.4449719], [78.3937119, 17.4447522]]]}, "properties": {"osm_id": 751806005, "name": null, "landuse": "commercial"}}, {"type": "Feature", "geometry": {"type": "Polygon", "coordinates": [[[78.3944812, 17.442163], [78.3945976, 17.4424512], [78.3947914, 17.4423735], [78.394901, 17.4426224], [78.3945885, 17.4427401], [78.3944651, 17.442781], [78.3941745, 17.442868], [78.3940947, 17.4426216], [78.3940715, 17.4426304], [78.3939676, 17.442355], [78.3944812, 17.442163]]]}, "properties": {"osm_id": 751806006, "name": null, "landuse": "commercial"}}, {"type": "Feature", "geometry": {"type": "Polygon", "coordinates": [[[78.3942398, 17.4430945], [78.3946046, 17.4440925], [78.3940655, 17.4442626], [78.3937792, 17.4434112], [78.3937731, 17.4433837], [78.3937745, 17.4433536], [78.3937839, 17.4433312], [78.3937986, 17.4433095], [78.3939696, 17.4432109], [78.3940937, 17.4431521], [78.3942398, 17.4430945]]]}, "properties": {"osm_id": 751806010, "name": null, "landuse": "commercial"}}, {"type": "Feature", "geometry": {"type": "Polygon", "coordinates": [[[78.3930919, 17.4437943], [78.3932434, 17.4441705], [78.3937329, 17.4439824], [78.3936015, 17.4436625], [78.3930919, 17.4437943]]]}, "properties": {"osm_id": 751806011, "name": "Car Trade", "landuse": "commercial"}}, {"type": "Feature", "geometry": {"type": "Polygon", "coordinates": [[[78.3854704, 17.4476095], [78.3854905, 17.447843], [78.3858512, 17.4478322], [78.3859042, 17.4476012], [78.3854704, 17.4476095]]]}, "properties": {"osm_id": 752929133, "name": null, "landuse": "commercial"}}, {"type": "Feature", "geometry": {"type": "Polygon", "coordinates": [[[78.3936162, 17.4445249], [78.3938751, 17.4444404], [78.3938032, 17.4442473], [78.3935363, 17.4443365], [78.3936162, 17.4445249]]]}, "properties": {"osm_id": 753231493, "name": null, "landuse": "commercial"}}, {"type": "Feature", "geometry": {"type": "Polygon", "coordinates": [[[78.3935298, 17.4443221], [78.3937926, 17.4442312], [78.3937293, 17.4440648], [78.3934665, 17.4441556], [78.3935298, 17.4443221]]]}, "properties": {"osm_id": 753231494, "name": null, "landuse": "commercial"}}, {"type": "Feature", "geometry": {"type": "Polygon", "coordinates": [[[78.3941596, 17.4465947], [78.3946126, 17.4464448], [78.3945217, 17.4461994], [78.3940749, 17.4463463], [78.3941596, 17.4465947]]]}, "properties": {"osm_id": 753866332, "name": null, "landuse": "commercial"}}, {"type": "Feature", "geometry": {"type": "Polygon", "coordinates": [[[78.3939019, 17.4451556], [78.394095, 17.4450942], [78.394032, 17.4449138], [78.3938389, 17.4449752], [78.3939019, 17.4451556]]]}, "properties": {"osm_id": 753874721, "name": null, "landuse": "commercial"}}, {"type": "Feature", "geometry": {"type": "Polygon", "coordinates": [[[78.3852838, 17.4331145], [78.385454, 17.4330003], [78.3856373, 17.4328767], [78.3857657, 17.4327919], [78.3858433, 17.43274], [78.3860011, 17.4326344], [78.3846262, 17.4310836], [78.3839412, 17.4315966], [78.3852838, 17.4331145]]]}, "properties": {"osm_id": 759754727, "name": null, "landuse": "commercial"}}, {"type": "Feature", "geometry": {"type": "Polygon", "coordinates": [[[78.3785097, 17.4384022], [78.3776178, 17.4373962], [78.3781808, 17.4369419], [78.3779025, 17.436642], [78.3775537, 17.4362389], [78.3773896, 17.4361098], [78.3771751, 17.4361007], [78.3771066, 17.4361085], [78.3770043, 17.4361018], [78.3762246, 17.4367956], [78.376762, 17.4373621], [78.3760396, 17.4379749], [78.3769888, 17.438805], [78.3772689, 17.4390917], [78.3772876, 17.4391141], [78.377338, 17.4391288], [78.3773938, 17.4391263], [78.3778883, 17.4389282], [78.3785097, 17.4384022]]]}, "properties": {"osm_id": 764360781, "name": null, "landuse": "construction"}}, {"type": "Feature", "geometry": {"type": "Polygon", "coordinates": [[[78.3692015, 17.4428181], [78.3701026, 17.4426633], [78.3710414, 17.4422897], [78.3697647, 17.4404908], [78.3690458, 17.4406955], [78.367981, 17.4410742], [78.3679944, 17.4412354], [78.3681044, 17.4413659], [78.3682894, 17.4416347], [78.3684638, 17.4418701], [78.3685601, 17.4419337], [78.3686254, 17.4421118], [78.3687801, 17.4421889], [78.3688793, 17.4422701], [78.3690526, 17.4425445], [78.3692015, 17.4428181]]]}, "properties": {"osm_id": 801697190, "name": null, "landuse": "commercial"}}, {"type": "Feature", "geometry": {"type": "Polygon", "coordinates": [[[78.3702528, 17.4447974], [78.3706176, 17.4446643], [78.3700329, 17.4430267], [78.3687454, 17.4432365], [78.3702528, 17.4447974]]]}, "properties": {"osm_id": 801697191, "name": null, "landuse": "commercial"}}, {"type": "Feature", "geometry": {"type": "Polygon", "coordinates": [[[78.3749829, 17.4333206], [78.3758355, 17.4334558], [78.3763237, 17.4301393], [78.37551, 17.430022], [78.3749829, 17.4333206]]]}, "properties": {"osm_id": 820206341, "name": null, "landuse": "commercial"}}, {"type": "Feature", "geometry": {"type": "Polygon", "coordinates": [[[78.3745672, 17.4372499], [78.3741662, 17.4376722], [78.3740669, 17.4385537], [78.3740401, 17.4392728], [78.375278, 17.4403555], [78.3753504, 17.440272], [78.3753789, 17.4402973], [78.3757145, 17.4400929], [78.3760813, 17.4397769], [78.3763254, 17.4395965], [78.3763374, 17.4395958], [78.3766258, 17.4392894], [78.3766325, 17.4391487], [78.3764233, 17.4389644], [78.3757809, 17.438404], [78.3753973, 17.4380624], [78.3750151, 17.4376926], [78.3745672, 17.4372499]]]}, "properties": {"osm_id": 847994242, "name": "IKEA", "landuse": "retail"}}, {"type": "Feature", "geometry": {"type": "Polygon", "coordinates": [[[78.3845142, 17.4415259], [78.3845302, 17.440606], [78.3854481, 17.4404332], [78.385555, 17.440969], [78.3859601, 17.440887], [78.3861369, 17.4417216], [78.3857694, 17.4418892], [78.3856031, 17.4415476], [78.3850707, 17.4415822], [78.3850144, 17.4414837], [78.3845142, 17.4415259]]]}, "properties": {"osm_id": 852979200, "name": "Fresh Living Apartments", "landuse": "residential"}}, {"type": "Feature", "geometry": {"type": "Polygon", "coordinates": [[[78.3741099, 17.4222987], [78.3741407, 17.4233389], [78.3744032, 17.4234849], [78.3744974, 17.4235373], [78.3749481, 17.4237689], [78.3753209, 17.4239506], [78.3757876, 17.4241604], [78.3759432, 17.4242334], [78.3763334, 17.4236064], [78.376348, 17.4235706], [78.376376, 17.4235702], [78.3763736, 17.4234285], [78.3766016, 17.4234004], [78.3767384, 17.423504], [78.3769769, 17.423915], [78.3770185, 17.4239866], [78.377231, 17.42428], [78.3774497, 17.4245133], [78.3777411, 17.4247454], [78.3782595, 17.4251804], [78.3783437, 17.4250972], [78.3775431, 17.424497], [78.3773459, 17.4243153], [78.3772105, 17.4241489], [78.3770858, 17.4239403], [78.3767934, 17.4233543], [78.3766459, 17.423211], [78.3764715, 17.4231534], [78.3762874, 17.4230384], [78.3762864, 17.4230009], [78.3762423, 17.423002], [78.376155, 17.4228386], [78.3761054, 17.4226851], [78.3760853, 17.4223242], [78.3760598, 17.422275], [78.3760042, 17.4222385], [78.3745122, 17.4222935], [78.3743285, 17.422298], [78.3742239, 17.4222871], [78.374185, 17.4222724], [78.3741635, 17.4222558], [78.3741414, 17.422234], [78.3741347, 17.4221985], [78.3740998, 17.4221931], [78.3741099, 17.4222987]]]}, "properties": {"osm_id": 860332814, "name": "Orion Villas", "landuse": "residential"}}, {"type": "Feature", "geometry": {"type": "Polygon", "coordinates": [[[78.3742519, 17.4352426], [78.3729116, 17.4360326], [78.3724868, 17.4354616], [78.3742894, 17.4343207], [78.3742519, 17.4352426]]]}, "properties": {"osm_id": 924837532, "name": "NCC Urban Gardenia", "landuse": "residential"}}, {"type": "Feature", "geometry": {"type": "Polygon", "coordinates": [[[78.3784255, 17.4315626], [78.3784991, 17.4311524], [78.3788788, 17.4290368], [78.3790783, 17.4290119], [78.3806169, 17.430713], [78.3806359, 17.4307511], [78.3806437, 17.4307667], [78.3804533, 17.4309535], [78.3802067, 17.4311229], [78.380051, 17.4312299], [78.3795977, 17.4314449], [78.3791497, 17.4315984], [78.3788118, 17.4316547], [78.3784255, 17.4315626]]]}, "properties": {"osm_id": 940531519, "name": null, "landuse": "commercial"}}, {"type": "Feature", "geometry": {"type": "Polygon", "coordinates": [[[78.3747328, 17.4465535], [78.3771489, 17.4458185], [78.3769656, 17.4442914], [78.3763773, 17.444395], [78.3749086, 17.4446536], [78.3750769, 17.445451], [78.3750788, 17.4456098], [78.3747141, 17.4461807], [78.3747328, 17.4465535]]]}, "properties": {"osm_id": 1120726022, "name": null, "landuse": "commercial"}}, {"type": "Feature", "geometry": {"type": "Polygon", "coordinates": [[[78.3734724, 17.4443949], [78.3737455, 17.4424039], [78.3740073, 17.442354], [78.3744486, 17.4428392], [78.3746524, 17.4428141], [78.3748163, 17.4437342], [78.3745982, 17.4437741], [78.3745084, 17.4441594], [78.3746917, 17.4450015], [78.3736725, 17.4452105], [78.3734724, 17.4443949]]]}, "properties": {"osm_id": 1120726023, "name": "Divyasree Trinity", "landuse": "commercial"}}, {"type": "Feature", "geometry": {"type": "Polygon", "coordinates": [[[78.3734724, 17.4443949], [78.3736725, 17.4452105], [78.3738838, 17.4460719], [78.3737081, 17.4466856], [78.3723504, 17.4470994], [78.3720662, 17.4461932], [78.3719589, 17.4462198], [78.3717772, 17.446008], [78.3715619, 17.4452593], [78.3734724, 17.4443949]]]}, "properties": {"osm_id": 1120726024, "name": null, "landuse": "construction"}}, {"type": "Feature", "geometry": {"type": "Polygon", "coordinates": [[[78.3720662, 17.4461932], [78.3723504, 17.4470994], [78.3737081, 17.4466856], [78.374481, 17.4468197], [78.374457, 17.4470442], [78.3736612, 17.4469812], [78.3732154, 17.448005], [78.3727096, 17.448593], [78.3720906, 17.4477002], [78.3719718, 17.44755], [78.3707558, 17.4486493], [78.370112, 17.4480271], [78.370322, 17.4478189], [78.3697306, 17.4472257], [78.3696615, 17.4471598], [78.3690563, 17.4475974], [78.3687192, 17.4473127], [78.3690066, 17.4470622], [78.3686197, 17.4467406], [78.3687275, 17.4466536], [78.3677078, 17.4455806], [78.3681278, 17.4449954], [78.3697261, 17.446586], [78.370453, 17.4462291], [78.3701678, 17.4454542], [78.3708353, 17.4451987], [78.370952, 17.44552], [78.3715619, 17.4452593], [78.3717772, 17.446008], [78.3719589, 17.4462198], [78.3720662, 17.4461932]]]}, "properties": {"osm_id": 1152313427, "name": "Pheonix Avance Business Park", "landuse": "commercial"}}, {"type": "Feature", "geometry": {"type": "Polygon", "coordinates": [[[78.3670797, 17.4486668], [78.3666719, 17.4483751], [78.3686197, 17.4467406], [78.3690066, 17.4470622], [78.3670797, 17.4486668]]]}, "properties": {"osm_id": 1152313428, "name": null, "landuse": "residential"}}, {"type": "Feature", "geometry": {"type": "Polygon", "coordinates": [[[78.3722012, 17.4503957], [78.3725857, 17.4500573], [78.3720381, 17.4494628], [78.3716088, 17.4498379], [78.3722012, 17.4503957]]]}, "properties": {"osm_id": 1152313433, "name": null, "landuse": "commercial"}}, {"type": "Feature", "geometry": {"type": "Polygon", "coordinates": [[[78.3725857, 17.4500573], [78.3731295, 17.449536], [78.3724295, 17.4489186], [78.3719807, 17.4493881], [78.3720381, 17.4494628], [78.3725857, 17.4500573]]]}, "properties": {"osm_id": 1152313434, "name": null, "landuse": "commercial"}}, {"type": "Feature", "geometry": {"type": "Polygon", "coordinates": [[[78.3726695, 17.4504319], [78.373383, 17.4510818], [78.3736719, 17.4510869], [78.3742601, 17.4510767], [78.3742788, 17.4503398], [78.3753061, 17.450309], [78.3755878, 17.4500327], [78.3750621, 17.4494826], [78.374935, 17.4495929], [78.3747975, 17.4494413], [78.3742493, 17.4488378], [78.374083, 17.4488352], [78.3736539, 17.4493444], [78.3736137, 17.449393], [78.3732025, 17.4497958], [78.3731363, 17.4498648], [78.3726963, 17.450309], [78.3726695, 17.4504319]]]}, "properties": {"osm_id": 1152313435, "name": "Oracle", "landuse": "commercial"}}, {"type": "Feature", "geometry": {"type": "Polygon", "coordinates": [[[78.3742601, 17.4510767], [78.3751856, 17.451045], [78.3753061, 17.450309], [78.3742788, 17.4503398], [78.3742601, 17.4510767]]]}, "properties": {"osm_id": 1152313436, "name": null, "landuse": "commercial"}}, {"type": "Feature", "geometry": {"type": "Polygon", "coordinates": [[[78.3742415, 17.4486517], [78.3748983, 17.4493325], [78.3754806, 17.4489125], [78.3760203, 17.4488075], [78.377689, 17.4483028], [78.3773765, 17.4472359], [78.374696, 17.4480217], [78.3744723, 17.4481098], [78.3742415, 17.4486517]]]}, "properties": {"osm_id": 1152313437, "name": null, "landuse": "commercial"}}, {"type": "Feature", "geometry": {"type": "Polygon", "coordinates": [[[78.377341, 17.4414565], [78.3774228, 17.4419967], [78.3784102, 17.4420384], [78.3782385, 17.4411943], [78.3776687, 17.4412241], [78.377341, 17.4414565]]]}, "properties": {"osm_id": 1152313439, "name": null, "landuse": "commercial"}}, {"type": "Feature", "geometry": {"type": "Polygon", "coordinates": [[[78.3748163, 17.4437342], [78.3759488, 17.4435259], [78.3757926, 17.4425017], [78.3746524, 17.4428141], [78.3748163, 17.4437342]]]}, "properties": {"osm_id": 1152313449, "name": null, "landuse": "construction"}}, {"type": "Feature", "geometry": {"type": "Polygon", "coordinates": [[[78.3790783, 17.4290119], [78.3806359, 17.4307511], [78.3810747, 17.4302824], [78.3816491, 17.4296877], [78.3812179, 17.4291798], [78.3806838, 17.4285], [78.3803326, 17.4280925], [78.3790783, 17.4290119]]]}, "properties": {"osm_id": 1408793065, "name": "Raheja Commerce Zone", "landuse": "commercial"}}, {"type": "Feature", "geometry": {"type": "Polygon", "coordinates": [[[78.375419, 17.437483], [78.3755722, 17.4376135], [78.3759375, 17.4379033], [78.3760396, 17.4379749], [78.376762, 17.4373621], [78.3762246, 17.4367956], [78.3759991, 17.4369909], [78.3757857, 17.437171], [78.3755928, 17.4373042], [78.3756174, 17.4373394], [78.375419, 17.437483]]]}, "properties": {"osm_id": 1409424453, "name": "LTIMindtree Metro STPI", "landuse": "commercial"}}, {"type": "Feature", "geometry": {"type": "Polygon", "coordinates": [[[78.3774878, 17.4342011], [78.3775933, 17.4341071], [78.3776016, 17.4340812], [78.3775992, 17.4340542], [78.3775792, 17.4340244], [78.3773255, 17.4339901], [78.377043, 17.4339552], [78.3768955, 17.4339316], [78.3765404, 17.4338848], [78.3760125, 17.433817], [78.3759618, 17.433808], [78.3759488, 17.4339296], [78.3758286, 17.434777], [78.3766968, 17.4348972], [78.3774878, 17.4342011]]]}, "properties": {"osm_id": 1409480797, "name": "Orbit", "landuse": "commercial"}}, {"type": "Feature", "geometry": {"type": "Polygon", "coordinates": [[[78.3783148, 17.4252111], [78.3782002, 17.4253147], [78.3780362, 17.4254379], [78.3779916, 17.4253892], [78.3779311, 17.4254398], [78.3779604, 17.4254748], [78.3778136, 17.4255416], [78.3776281, 17.4256797], [78.3775741, 17.4256059], [78.3774694, 17.4254741], [78.3768203, 17.4247219], [78.3768534, 17.4246926], [78.3769411, 17.42461], [78.3769411, 17.4244371], [78.3769388, 17.4242904], [78.3769457, 17.4242056], [78.3769616, 17.4241523], [78.3769867, 17.4240262], [78.37694, 17.4239403], [78.3769769, 17.423915], [78.3770185, 17.4239866], [78.377231, 17.42428], [78.3774497, 17.4245133], [78.3777411, 17.4247454], [78.3782595, 17.4251804], [78.378279, 17.4251828], [78.3783148, 17.4252111]]]}, "properties": {"osm_id": 1409668579, "name": "Wells Fargo", "landuse": "commercial"}}, {"type": "Feature", "geometry": {"type": "Polygon", "coordinates": [[[78.3796197, 17.4455828], [78.3800288, 17.4454879], [78.380193, 17.4454516], [78.3801706, 17.4453322], [78.3801295, 17.4452002], [78.3801176, 17.4451629], [78.3801038, 17.4451527], [78.3800809, 17.4451539], [78.3800267, 17.445169], [78.3798398, 17.4452164], [78.3795367, 17.4452913], [78.3795621, 17.4453567], [78.3796197, 17.4455828]]]}, "properties": {"osm_id": 1409746698, "name": "Sree Nilayamu Apartments", "landuse": "residential"}}, {"type": "Feature", "geometry": {"type": "Polygon", "coordinates": [[[78.3793642, 17.43492], [78.379976, 17.4344283], [78.3798714, 17.4343041], [78.3797274, 17.4341567], [78.3791025, 17.4334406], [78.3790222, 17.4335091], [78.3789131, 17.433603], [78.3786327, 17.4338214], [78.3785649, 17.4338775], [78.3785055, 17.4339233], [78.3793642, 17.43492]]]}, "properties": {"osm_id": 1410023093, "name": "T-HUB Corporate Office", "landuse": "commercial"}}, {"type": "Feature", "geometry": {"type": "Polygon", "coordinates": [[[78.3779224, 17.4355203], [78.3778905, 17.4359247], [78.3780194, 17.4360633], [78.3784167, 17.4357041], [78.3788146, 17.4353748], [78.3793642, 17.43492], [78.3785055, 17.4339233], [78.3783236, 17.4340518], [78.3782437, 17.4341222], [78.378079, 17.4342589], [78.3780312, 17.4345921], [78.3779833, 17.4349113], [78.3779523, 17.4351803], [78.3779224, 17.4355203]]]}, "properties": {"osm_id": 1410024118, "name": "T-Works", "landuse": "commercial"}}, {"type": "Feature", "geometry": {"type": "Polygon", "coordinates": [[[78.3869387, 17.4358066], [78.3869675, 17.4356946], [78.3871442, 17.4355655], [78.3875113, 17.4353584], [78.3876353, 17.4359402], [78.386976, 17.4360634], [78.3869387, 17.4358066]]]}, "properties": {"osm_id": 1451064955, "name": null, "landuse": "industrial"}}, {"type": "Feature", "geometry": {"type": "Polygon", "coordinates": [[[78.3744865, 17.4273218], [78.3750405, 17.427187], [78.3747007, 17.4259158], [78.3741465, 17.4260506], [78.3744865, 17.4273218]]]}, "properties": {"osm_id": 1463447706, "name": "The First by DSR", "landuse": "residential"}}, {"type": "Feature", "geometry": {"type": "Polygon", "coordinates": [[[78.3785097, 17.4384022], [78.3790106, 17.4379778], [78.3790193, 17.4379104], [78.3789376, 17.4377873], [78.3787597, 17.437554], [78.3784121, 17.4371907], [78.3781808, 17.4369419], [78.3776178, 17.4373962], [78.3785097, 17.4384022]]]}, "properties": {"osm_id": 1496345297, "name": "Prestige Oberoi (u/c)", "landuse": "construction"}}, {"type": "Feature", "geometry": {"type": "Polygon", "coordinates": [[[78.3808472, 17.4420043], [78.3806353, 17.4420273], [78.3804073, 17.4420631], [78.3803108, 17.4421066], [78.3802196, 17.4422039], [78.3801686, 17.4422806], [78.3801284, 17.4423984], [78.380115, 17.4425852], [78.3801203, 17.4428231], [78.3801499, 17.4429434], [78.3802276, 17.4430944], [78.3803322, 17.4432325], [78.3804556, 17.4433426], [78.3805683, 17.4434373], [78.3806782, 17.4435038], [78.3807256, 17.4435429], [78.3810943, 17.4432211], [78.3808905, 17.4429653], [78.3807832, 17.4424944], [78.3808476, 17.4422948], [78.3808472, 17.4420043]]]}, "properties": {"osm_id": 1496345303, "name": null, "landuse": "construction"}}, {"type": "Feature", "geometry": {"type": "Polygon", "coordinates": [[[78.3700451, 17.4378967], [78.3696574, 17.4371872], [78.3689868, 17.4376018], [78.3682841, 17.4378628], [78.3687133, 17.4387738], [78.3690469, 17.4393565], [78.3696004, 17.4402167], [78.3709395, 17.4398895], [78.3715832, 17.4397257], [78.3716064, 17.4397105], [78.3716263, 17.4396915], [78.3716422, 17.4396694], [78.3716562, 17.4396369], [78.3716617, 17.4396021], [78.3716583, 17.439567], [78.3715064, 17.4389932], [78.370603, 17.4393949], [78.3701513, 17.4384856], [78.3698527, 17.4379852], [78.3700451, 17.4378967]]]}, "properties": {"osm_id": 1496345305, "name": null, "landuse": "construction"}}, {"type": "Feature", "geometry": {"type": "Polygon", "coordinates": [[[78.3802382, 17.4370429], [78.3795637, 17.4375949], [78.3794381, 17.4376005], [78.3793149, 17.4375648], [78.3780194, 17.4360633], [78.3788146, 17.4353748], [78.3802382, 17.4370429]]]}, "properties": {"osm_id": 1496345308, "name": null, "landuse": "construction"}}]}